<?xml version="1.0" encoding="UTF-8"?>
<gpx version="1.1" creator="RouteConverter 3.5-SNAPSHOT-103" xmlns="http://www.topografix.com/GPX/1/1" xmlns:xsi="http://www.w3.org/2001/XMLSchema-instance" xsi:schemaLocation="http://www.topografix.com/GPX/1/1 http://www.topografix.com/GPX/1/1/gpx.xsd http://www.garmin.com/xmlschemas/GpxExtensions/v3 http://www.garmin.com/xmlschemas/GpxExtensionsv3.xsd http://www.garmin.com/xmlschemas/TrackPointExtension/v1 http://www.garmin.com/xmlschemas/TrackPointExtensionv1.xsd http://www.garmin.com/xmlschemas/PowerExtension/v1 http://www.garmin.com/xmlschemas/PowerExtensionv1.xsd http://www.topografix.com/GPX/gpx_style/0/2 http://www.topografix.com/GPX/gpx_style/0/2/gpx_style.xsd" xmlns:gpxtpx="http://www.garmin.com/xmlschemas/TrackPointExtension/v1" xmlns:gpxx="http://www.garmin.com/xmlschemas/GpxExtensions/v3" xmlns:gpxpx="http://www.garmin.com/xmlschemas/PowerExtension/v1" xmlns:gpx_style="http://www.topografix.com/GPX/gpx_style/0/2">
  <metadata>
    <name>koper_milje:0:Z2rTwQfrqU8</name>
    <author>
      <name>gpx.studio</name>
      <link href="https://gpx.studio"/>
    </author>
    <time>2026-06-25T21:57:15.317Z</time>
  </metadata>
  <trk>
    <name>koper_milje:0:Z2rTwQfrqU8</name>
    <desc>Created at 2026-06-25T20:35:33Z</desc>
    <trkseg>
      <trkpt lat="45.537797" lon="13.737407">
        <ele>3.8</ele>
      </trkpt>
      <trkpt lat="45.53782" lon="13.73741">
        <ele>3.8</ele>
      </trkpt>
      <trkpt lat="45.537842" lon="13.737415">
        <ele>3.8</ele>
      </trkpt>
      <trkpt lat="45.537862" lon="13.737422">
        <ele>4</ele>
      </trkpt>
      <trkpt lat="45.53788" lon="13.73744">
        <ele>4</ele>
      </trkpt>
      <trkpt lat="45.537887" lon="13.737467">
        <ele>4.2</ele>
      </trkpt>
      <trkpt lat="45.537872" lon="13.737485">
        <ele>4.2</ele>
      </trkpt>
      <trkpt lat="45.537852" lon="13.737492">
        <ele>4.2</ele>
      </trkpt>
      <trkpt lat="45.53783" lon="13.737495">
        <ele>4.2</ele>
      </trkpt>
      <trkpt lat="45.537802" lon="13.737497">
        <ele>4.2</ele>
      </trkpt>
      <trkpt lat="45.537777" lon="13.737497">
        <ele>4.2</ele>
      </trkpt>
      <trkpt lat="45.537752" lon="13.737495">
        <ele>4.2</ele>
      </trkpt>
      <trkpt lat="45.53772" lon="13.737495">
        <ele>4.2</ele>
      </trkpt>
      <trkpt lat="45.537687" lon="13.737497">
        <ele>4.2</ele>
      </trkpt>
      <trkpt lat="45.537655" lon="13.73751">
        <ele>4</ele>
      </trkpt>
      <trkpt lat="45.537622" lon="13.737532">
        <ele>4</ele>
      </trkpt>
      <trkpt lat="45.537598" lon="13.737567">
        <ele>4</ele>
      </trkpt>
      <trkpt lat="45.537582" lon="13.737615">
        <ele>4</ele>
      </trkpt>
      <trkpt lat="45.537577" lon="13.737667">
        <ele>4.2</ele>
      </trkpt>
      <trkpt lat="45.537577" lon="13.737725">
        <ele>4.2</ele>
      </trkpt>
      <trkpt lat="45.53758" lon="13.737782">
        <ele>4.2</ele>
      </trkpt>
      <trkpt lat="45.537587" lon="13.737837">
        <ele>4</ele>
      </trkpt>
      <trkpt lat="45.537612" lon="13.737947">
        <ele>3.8</ele>
      </trkpt>
      <trkpt lat="45.537615" lon="13.738007">
        <ele>3.8</ele>
      </trkpt>
      <trkpt lat="45.537617" lon="13.73807">
        <ele>3.8</ele>
      </trkpt>
      <trkpt lat="45.53762" lon="13.73813">
        <ele>3.6</ele>
      </trkpt>
      <trkpt lat="45.537622" lon="13.738187">
        <ele>3.6</ele>
      </trkpt>
      <trkpt lat="45.537627" lon="13.738232">
        <ele>3.6</ele>
      </trkpt>
      <trkpt lat="45.537637" lon="13.738292">
        <ele>3.6</ele>
      </trkpt>
      <trkpt lat="45.537632" lon="13.738372">
        <ele>3.6</ele>
      </trkpt>
      <trkpt lat="45.537637" lon="13.738452">
        <ele>3.6</ele>
      </trkpt>
      <trkpt lat="45.537637" lon="13.73853">
        <ele>3.6</ele>
      </trkpt>
      <trkpt lat="45.53764" lon="13.7386">
        <ele>3.6</ele>
      </trkpt>
      <trkpt lat="45.537645" lon="13.738667">
        <ele>3.6</ele>
      </trkpt>
      <trkpt lat="45.537652" lon="13.738735">
        <ele>3.6</ele>
      </trkpt>
      <trkpt lat="45.537657" lon="13.738797">
        <ele>3.6</ele>
      </trkpt>
      <trkpt lat="45.537662" lon="13.738872">
        <ele>3.6</ele>
      </trkpt>
      <trkpt lat="45.537667" lon="13.738938">
        <ele>3.8</ele>
      </trkpt>
      <trkpt lat="45.537672" lon="13.739012">
        <ele>4</ele>
      </trkpt>
      <trkpt lat="45.537682" lon="13.739077">
        <ele>4</ele>
      </trkpt>
      <trkpt lat="45.537687" lon="13.73915">
        <ele>4</ele>
      </trkpt>
      <trkpt lat="45.537682" lon="13.739212">
        <ele>4.2</ele>
      </trkpt>
      <trkpt lat="45.537675" lon="13.739272">
        <ele>4.2</ele>
      </trkpt>
      <trkpt lat="45.537662" lon="13.739337">
        <ele>4.4</ele>
      </trkpt>
      <trkpt lat="45.537655" lon="13.739397">
        <ele>4.4</ele>
      </trkpt>
      <trkpt lat="45.53765" lon="13.739462">
        <ele>4.6</ele>
      </trkpt>
      <trkpt lat="45.537647" lon="13.739525">
        <ele>4.6</ele>
      </trkpt>
      <trkpt lat="45.537652" lon="13.739582">
        <ele>4.6</ele>
      </trkpt>
      <trkpt lat="45.537657" lon="13.739647">
        <ele>4.6</ele>
      </trkpt>
      <trkpt lat="45.537638" lon="13.739654">
        <ele>3.49</ele>
      </trkpt>
      <trkpt lat="45.537673" lon="13.739837">
        <ele>3.8</ele>
      </trkpt>
      <trkpt lat="45.53794" lon="13.740836">
        <ele>3.9</ele>
      </trkpt>
      <trkpt lat="45.538066" lon="13.741386">
        <ele>4.02</ele>
      </trkpt>
      <trkpt lat="45.538279" lon="13.74203">
        <ele>4.23</ele>
      </trkpt>
      <trkpt lat="45.538506" lon="13.742637">
        <ele>4.43</ele>
      </trkpt>
      <trkpt lat="45.538649" lon="13.743019">
        <ele>4.55</ele>
      </trkpt>
      <trkpt lat="45.539059" lon="13.743988">
        <ele>4.71</ele>
      </trkpt>
      <trkpt lat="45.53942" lon="13.74469">
        <ele>3.96</ele>
      </trkpt>
      <trkpt lat="45.53942" lon="13.74469">
        <ele>3.96</ele>
      </trkpt>
      <trkpt lat="45.539632" lon="13.745104">
        <ele>3.52</ele>
      </trkpt>
      <trkpt lat="45.53983" lon="13.745597">
        <ele>3.63</ele>
      </trkpt>
      <trkpt lat="45.53983" lon="13.745597">
        <ele>6</ele>
      </trkpt>
      <trkpt lat="45.53983" lon="13.745597">
        <ele>3.63</ele>
      </trkpt>
      <trkpt lat="45.540075" lon="13.746205">
        <ele>3.77</ele>
      </trkpt>
      <trkpt lat="45.540294" lon="13.746791">
        <ele>4.16</ele>
      </trkpt>
      <trkpt lat="45.540294" lon="13.746791">
        <ele>4.16</ele>
      </trkpt>
      <trkpt lat="45.540429" lon="13.74715">
        <ele>4.39</ele>
      </trkpt>
      <trkpt lat="45.54134" lon="13.749284">
        <ele>4.34</ele>
      </trkpt>
      <trkpt lat="45.541695" lon="13.75014">
        <ele>4.03</ele>
      </trkpt>
      <trkpt lat="45.541695" lon="13.75014">
        <ele>4.03</ele>
      </trkpt>
      <trkpt lat="45.542187" lon="13.751326">
        <ele>3.59</ele>
      </trkpt>
      <trkpt lat="45.543097" lon="13.753453">
        <ele>2.92</ele>
      </trkpt>
      <trkpt lat="45.544162" lon="13.755743">
        <ele>2.47</ele>
      </trkpt>
      <trkpt lat="45.545009" lon="13.75758">
        <ele>5.15</ele>
      </trkpt>
      <trkpt lat="45.545139" lon="13.757959">
        <ele>5.93</ele>
      </trkpt>
      <trkpt lat="45.545219" lon="13.758367">
        <ele>5.88</ele>
      </trkpt>
      <trkpt lat="45.545306" lon="13.758684">
        <ele>5.48</ele>
      </trkpt>
      <trkpt lat="45.545679" lon="13.759683">
        <ele>4.86</ele>
      </trkpt>
      <trkpt lat="45.546257" lon="13.761254">
        <ele>5.71</ele>
      </trkpt>
      <trkpt lat="45.54689" lon="13.762905">
        <ele>7.48</ele>
      </trkpt>
      <trkpt lat="45.54699" lon="13.763139">
        <ele>8.54</ele>
      </trkpt>
      <trkpt lat="45.547233" lon="13.763531">
        <ele>10.66</ele>
      </trkpt>
      <trkpt lat="45.547213" lon="13.763544">
        <ele>10.78</ele>
      </trkpt>
      <trkpt lat="45.547212" lon="13.763542">
        <ele>12.4</ele>
      </trkpt>
      <trkpt lat="45.547217" lon="13.76357">
        <ele>12.4</ele>
      </trkpt>
      <trkpt lat="45.547205" lon="13.76359">
        <ele>12.4</ele>
      </trkpt>
      <trkpt lat="45.547187" lon="13.763605">
        <ele>12.6</ele>
      </trkpt>
      <trkpt lat="45.547162" lon="13.76362">
        <ele>12.6</ele>
      </trkpt>
      <trkpt lat="45.547135" lon="13.763635">
        <ele>12.6</ele>
      </trkpt>
      <trkpt lat="45.547102" lon="13.763647">
        <ele>12.6</ele>
      </trkpt>
      <trkpt lat="45.547072" lon="13.763665">
        <ele>12.6</ele>
      </trkpt>
      <trkpt lat="45.547042" lon="13.763677">
        <ele>12.8</ele>
      </trkpt>
      <trkpt lat="45.54701" lon="13.76369">
        <ele>12.8</ele>
      </trkpt>
      <trkpt lat="45.546977" lon="13.763707">
        <ele>13</ele>
      </trkpt>
      <trkpt lat="45.546947" lon="13.763722">
        <ele>13</ele>
      </trkpt>
      <trkpt lat="45.546913" lon="13.763737">
        <ele>13</ele>
      </trkpt>
      <trkpt lat="45.546882" lon="13.763752">
        <ele>13.2</ele>
      </trkpt>
      <trkpt lat="45.54685" lon="13.763767">
        <ele>13.2</ele>
      </trkpt>
      <trkpt lat="45.546817" lon="13.763782">
        <ele>13.2</ele>
      </trkpt>
      <trkpt lat="45.546785" lon="13.763797">
        <ele>13.2</ele>
      </trkpt>
      <trkpt lat="45.546752" lon="13.763812">
        <ele>13.4</ele>
      </trkpt>
      <trkpt lat="45.546687" lon="13.763842">
        <ele>13.4</ele>
      </trkpt>
      <trkpt lat="45.546652" lon="13.763857">
        <ele>13.4</ele>
      </trkpt>
      <trkpt lat="45.546618" lon="13.76387">
        <ele>13.6</ele>
      </trkpt>
      <trkpt lat="45.546587" lon="13.763877">
        <ele>13.6</ele>
      </trkpt>
      <trkpt lat="45.546552" lon="13.763882">
        <ele>13.6</ele>
      </trkpt>
      <trkpt lat="45.546517" lon="13.763887">
        <ele>13.6</ele>
      </trkpt>
      <trkpt lat="45.546485" lon="13.76389">
        <ele>13.6</ele>
      </trkpt>
      <trkpt lat="45.546452" lon="13.763887">
        <ele>13.8</ele>
      </trkpt>
      <trkpt lat="45.54642" lon="13.763887">
        <ele>13.8</ele>
      </trkpt>
      <trkpt lat="45.546387" lon="13.763887">
        <ele>13.8</ele>
      </trkpt>
      <trkpt lat="45.546357" lon="13.76388">
        <ele>13.8</ele>
      </trkpt>
      <trkpt lat="45.546322" lon="13.763872">
        <ele>13.8</ele>
      </trkpt>
      <trkpt lat="45.546292" lon="13.763865">
        <ele>13.8</ele>
      </trkpt>
      <trkpt lat="45.546257" lon="13.763852">
        <ele>13.6</ele>
      </trkpt>
      <trkpt lat="45.546227" lon="13.763837">
        <ele>13.6</ele>
      </trkpt>
      <trkpt lat="45.546195" lon="13.76382">
        <ele>13.4</ele>
      </trkpt>
      <trkpt lat="45.546162" lon="13.763805">
        <ele>13.2</ele>
      </trkpt>
      <trkpt lat="45.546132" lon="13.763782">
        <ele>13</ele>
      </trkpt>
      <trkpt lat="45.546102" lon="13.76376">
        <ele>13</ele>
      </trkpt>
      <trkpt lat="45.546067" lon="13.763732">
        <ele>13</ele>
      </trkpt>
      <trkpt lat="45.54603" lon="13.763732">
        <ele>13</ele>
      </trkpt>
      <trkpt lat="45.545995" lon="13.763732">
        <ele>13</ele>
      </trkpt>
      <trkpt lat="45.545965" lon="13.763747">
        <ele>13.2</ele>
      </trkpt>
      <trkpt lat="45.545937" lon="13.763767">
        <ele>13.4</ele>
      </trkpt>
      <trkpt lat="45.545912" lon="13.76379">
        <ele>13.6</ele>
      </trkpt>
      <trkpt lat="45.545887" lon="13.763825">
        <ele>13.8</ele>
      </trkpt>
      <trkpt lat="45.545877" lon="13.763855">
        <ele>14</ele>
      </trkpt>
      <trkpt lat="45.54587" lon="13.763885">
        <ele>14.2</ele>
      </trkpt>
      <trkpt lat="45.545877" lon="13.763922">
        <ele>14.4</ele>
      </trkpt>
      <trkpt lat="45.545877" lon="13.76396">
        <ele>14.6</ele>
      </trkpt>
      <trkpt lat="45.54588" lon="13.764007">
        <ele>14.6</ele>
      </trkpt>
      <trkpt lat="45.545875" lon="13.764052">
        <ele>14.8</ele>
      </trkpt>
      <trkpt lat="45.54587" lon="13.764097">
        <ele>14.8</ele>
      </trkpt>
      <trkpt lat="45.545865" lon="13.764137">
        <ele>14.8</ele>
      </trkpt>
      <trkpt lat="45.545865" lon="13.764172">
        <ele>14.8</ele>
      </trkpt>
      <trkpt lat="45.545872" lon="13.76421">
        <ele>14.8</ele>
      </trkpt>
      <trkpt lat="45.54589" lon="13.764255">
        <ele>14.6</ele>
      </trkpt>
      <trkpt lat="45.545917" lon="13.764292">
        <ele>14.6</ele>
      </trkpt>
      <trkpt lat="45.545952" lon="13.764312">
        <ele>14.4</ele>
      </trkpt>
      <trkpt lat="45.545995" lon="13.764322">
        <ele>14.4</ele>
      </trkpt>
      <trkpt lat="45.54604" lon="13.764332">
        <ele>14.4</ele>
      </trkpt>
      <trkpt lat="45.546132" lon="13.764372">
        <ele>14.2</ele>
      </trkpt>
      <trkpt lat="45.546167" lon="13.76441">
        <ele>14.2</ele>
      </trkpt>
      <trkpt lat="45.5462" lon="13.764457">
        <ele>14.2</ele>
      </trkpt>
      <trkpt lat="45.546227" lon="13.76451">
        <ele>14</ele>
      </trkpt>
      <trkpt lat="45.546257" lon="13.764567">
        <ele>14</ele>
      </trkpt>
      <trkpt lat="45.546285" lon="13.764622">
        <ele>14</ele>
      </trkpt>
      <trkpt lat="45.546315" lon="13.764682">
        <ele>14</ele>
      </trkpt>
      <trkpt lat="45.546345" lon="13.764742">
        <ele>13.8</ele>
      </trkpt>
      <trkpt lat="45.546375" lon="13.764805">
        <ele>13.8</ele>
      </trkpt>
      <trkpt lat="45.546407" lon="13.764867">
        <ele>13.8</ele>
      </trkpt>
      <trkpt lat="45.546437" lon="13.764932">
        <ele>13.8</ele>
      </trkpt>
      <trkpt lat="45.54647" lon="13.765002">
        <ele>13.4</ele>
      </trkpt>
      <trkpt lat="45.546502" lon="13.76507">
        <ele>13</ele>
      </trkpt>
      <trkpt lat="45.546537" lon="13.765137">
        <ele>12.8</ele>
      </trkpt>
      <trkpt lat="45.546575" lon="13.765202">
        <ele>12.6</ele>
      </trkpt>
      <trkpt lat="45.54661" lon="13.765267">
        <ele>12.4</ele>
      </trkpt>
      <trkpt lat="45.546645" lon="13.76533">
        <ele>12.2</ele>
      </trkpt>
      <trkpt lat="45.546677" lon="13.765387">
        <ele>12</ele>
      </trkpt>
      <trkpt lat="45.546712" lon="13.765445">
        <ele>12</ele>
      </trkpt>
      <trkpt lat="45.546752" lon="13.765505">
        <ele>12</ele>
      </trkpt>
      <trkpt lat="45.546792" lon="13.765565">
        <ele>12</ele>
      </trkpt>
      <trkpt lat="45.546832" lon="13.765617">
        <ele>12.2</ele>
      </trkpt>
      <trkpt lat="45.54688" lon="13.765655">
        <ele>12.2</ele>
      </trkpt>
      <trkpt lat="45.546922" lon="13.765697">
        <ele>12.2</ele>
      </trkpt>
      <trkpt lat="45.546957" lon="13.76573">
        <ele>12.2</ele>
      </trkpt>
      <trkpt lat="45.546987" lon="13.765757">
        <ele>12.2</ele>
      </trkpt>
      <trkpt lat="45.547015" lon="13.765787">
        <ele>12</ele>
      </trkpt>
      <trkpt lat="45.54704" lon="13.765812">
        <ele>12.2</ele>
      </trkpt>
      <trkpt lat="45.54706" lon="13.765845">
        <ele>12.2</ele>
      </trkpt>
      <trkpt lat="45.547075" lon="13.765877">
        <ele>12.2</ele>
      </trkpt>
      <trkpt lat="45.54708" lon="13.765912">
        <ele>12.2</ele>
      </trkpt>
      <trkpt lat="45.547087" lon="13.76594">
        <ele>12</ele>
      </trkpt>
      <trkpt lat="45.54709" lon="13.76597">
        <ele>12</ele>
      </trkpt>
      <trkpt lat="45.547092" lon="13.766002">
        <ele>11.8</ele>
      </trkpt>
      <trkpt lat="45.547107" lon="13.76602">
        <ele>11.8</ele>
      </trkpt>
      <trkpt lat="45.547125" lon="13.766027">
        <ele>11.8</ele>
      </trkpt>
      <trkpt lat="45.547142" lon="13.766025">
        <ele>11.8</ele>
      </trkpt>
      <trkpt lat="45.547157" lon="13.76601">
        <ele>11.8</ele>
      </trkpt>
      <trkpt lat="45.547167" lon="13.765987">
        <ele>11.8</ele>
      </trkpt>
      <trkpt lat="45.547182" lon="13.765967">
        <ele>11.6</ele>
      </trkpt>
      <trkpt lat="45.547235" lon="13.765977">
        <ele>11.6</ele>
      </trkpt>
      <trkpt lat="45.547262" lon="13.766">
        <ele>11.4</ele>
      </trkpt>
      <trkpt lat="45.547287" lon="13.766022">
        <ele>11.4</ele>
      </trkpt>
      <trkpt lat="45.547315" lon="13.766047">
        <ele>11.4</ele>
      </trkpt>
      <trkpt lat="45.547342" lon="13.766068">
        <ele>11.2</ele>
      </trkpt>
      <trkpt lat="45.547367" lon="13.766097">
        <ele>11.2</ele>
      </trkpt>
      <trkpt lat="45.547397" lon="13.766122">
        <ele>11</ele>
      </trkpt>
      <trkpt lat="45.547425" lon="13.766147">
        <ele>11</ele>
      </trkpt>
      <trkpt lat="45.547452" lon="13.766177">
        <ele>11</ele>
      </trkpt>
      <trkpt lat="45.54748" lon="13.766198">
        <ele>11</ele>
      </trkpt>
      <trkpt lat="45.547505" lon="13.766225">
        <ele>11</ele>
      </trkpt>
      <trkpt lat="45.547532" lon="13.766257">
        <ele>11</ele>
      </trkpt>
      <trkpt lat="45.547552" lon="13.766297">
        <ele>11</ele>
      </trkpt>
      <trkpt lat="45.547575" lon="13.76634">
        <ele>11</ele>
      </trkpt>
      <trkpt lat="45.547592" lon="13.766388">
        <ele>11</ele>
      </trkpt>
      <trkpt lat="45.547612" lon="13.766442">
        <ele>11</ele>
      </trkpt>
      <trkpt lat="45.547627" lon="13.766497">
        <ele>11</ele>
      </trkpt>
      <trkpt lat="45.547642" lon="13.766557">
        <ele>11</ele>
      </trkpt>
      <trkpt lat="45.547657" lon="13.766617">
        <ele>11</ele>
      </trkpt>
      <trkpt lat="45.547673" lon="13.766677">
        <ele>11</ele>
      </trkpt>
      <trkpt lat="45.547692" lon="13.766742">
        <ele>11</ele>
      </trkpt>
      <trkpt lat="45.547707" lon="13.766807">
        <ele>10.8</ele>
      </trkpt>
      <trkpt lat="45.547722" lon="13.766872">
        <ele>10.8</ele>
      </trkpt>
      <trkpt lat="45.547737" lon="13.766935">
        <ele>10.8</ele>
      </trkpt>
      <trkpt lat="45.547752" lon="13.767002">
        <ele>10.8</ele>
      </trkpt>
      <trkpt lat="45.547767" lon="13.767067">
        <ele>10.6</ele>
      </trkpt>
      <trkpt lat="45.547785" lon="13.767132">
        <ele>10.6</ele>
      </trkpt>
      <trkpt lat="45.547805" lon="13.767202">
        <ele>10.8</ele>
      </trkpt>
      <trkpt lat="45.547827" lon="13.76727">
        <ele>10.8</ele>
      </trkpt>
      <trkpt lat="45.547847" lon="13.76734">
        <ele>10.8</ele>
      </trkpt>
      <trkpt lat="45.547887" lon="13.76748">
        <ele>10.6</ele>
      </trkpt>
      <trkpt lat="45.547905" lon="13.767547">
        <ele>10.4</ele>
      </trkpt>
      <trkpt lat="45.547922" lon="13.767622">
        <ele>10.4</ele>
      </trkpt>
      <trkpt lat="45.547935" lon="13.7677">
        <ele>10.4</ele>
      </trkpt>
      <trkpt lat="45.54795" lon="13.767775">
        <ele>10.2</ele>
      </trkpt>
      <trkpt lat="45.547965" lon="13.767852">
        <ele>10</ele>
      </trkpt>
      <trkpt lat="45.547982" lon="13.767927">
        <ele>10</ele>
      </trkpt>
      <trkpt lat="45.548002" lon="13.768005">
        <ele>10.2</ele>
      </trkpt>
      <trkpt lat="45.548022" lon="13.768082">
        <ele>10.4</ele>
      </trkpt>
      <trkpt lat="45.54804" lon="13.768157">
        <ele>10.4</ele>
      </trkpt>
      <trkpt lat="45.548062" lon="13.768237">
        <ele>10.6</ele>
      </trkpt>
      <trkpt lat="45.548082" lon="13.768317">
        <ele>10.6</ele>
      </trkpt>
      <trkpt lat="45.548102" lon="13.7684">
        <ele>10.6</ele>
      </trkpt>
      <trkpt lat="45.548125" lon="13.768477">
        <ele>10.8</ele>
      </trkpt>
      <trkpt lat="45.548147" lon="13.768557">
        <ele>10.8</ele>
      </trkpt>
      <trkpt lat="45.54817" lon="13.768637">
        <ele>10.8</ele>
      </trkpt>
      <trkpt lat="45.548192" lon="13.76872">
        <ele>10.6</ele>
      </trkpt>
      <trkpt lat="45.548222" lon="13.768797">
        <ele>10.8</ele>
      </trkpt>
      <trkpt lat="45.548257" lon="13.768872">
        <ele>10.6</ele>
      </trkpt>
      <trkpt lat="45.548292" lon="13.768947">
        <ele>10.4</ele>
      </trkpt>
      <trkpt lat="45.548327" lon="13.769022">
        <ele>10.4</ele>
      </trkpt>
      <trkpt lat="45.548362" lon="13.769097">
        <ele>10.4</ele>
      </trkpt>
      <trkpt lat="45.548395" lon="13.769167">
        <ele>10.4</ele>
      </trkpt>
      <trkpt lat="45.548457" lon="13.769302">
        <ele>10.4</ele>
      </trkpt>
      <trkpt lat="45.548497" lon="13.769372">
        <ele>10.6</ele>
      </trkpt>
      <trkpt lat="45.548537" lon="13.769452">
        <ele>10.6</ele>
      </trkpt>
      <trkpt lat="45.548577" lon="13.769527">
        <ele>10.6</ele>
      </trkpt>
      <trkpt lat="45.548615" lon="13.769602">
        <ele>10.6</ele>
      </trkpt>
      <trkpt lat="45.54865" lon="13.769672">
        <ele>10.4</ele>
      </trkpt>
      <trkpt lat="45.548682" lon="13.769747">
        <ele>10.4</ele>
      </trkpt>
      <trkpt lat="45.548715" lon="13.769827">
        <ele>10.4</ele>
      </trkpt>
      <trkpt lat="45.548747" lon="13.769902">
        <ele>10.2</ele>
      </trkpt>
      <trkpt lat="45.54878" lon="13.769977">
        <ele>10.2</ele>
      </trkpt>
      <trkpt lat="45.548812" lon="13.770055">
        <ele>10.2</ele>
      </trkpt>
      <trkpt lat="45.548842" lon="13.770142">
        <ele>10.2</ele>
      </trkpt>
      <trkpt lat="45.54887" lon="13.770227">
        <ele>10</ele>
      </trkpt>
      <trkpt lat="45.548892" lon="13.770315">
        <ele>10</ele>
      </trkpt>
      <trkpt lat="45.548917" lon="13.770405">
        <ele>9.8</ele>
      </trkpt>
      <trkpt lat="45.548937" lon="13.770497">
        <ele>9.8</ele>
      </trkpt>
      <trkpt lat="45.548955" lon="13.770572">
        <ele>9.6</ele>
      </trkpt>
      <trkpt lat="45.548982" lon="13.770737">
        <ele>9.6</ele>
      </trkpt>
      <trkpt lat="45.548997" lon="13.77083">
        <ele>9.6</ele>
      </trkpt>
      <trkpt lat="45.549017" lon="13.770917">
        <ele>9.4</ele>
      </trkpt>
      <trkpt lat="45.549035" lon="13.771">
        <ele>9.2</ele>
      </trkpt>
      <trkpt lat="45.549057" lon="13.771087">
        <ele>9.2</ele>
      </trkpt>
      <trkpt lat="45.549085" lon="13.771177">
        <ele>9.2</ele>
      </trkpt>
      <trkpt lat="45.549102" lon="13.771265">
        <ele>9</ele>
      </trkpt>
      <trkpt lat="45.549122" lon="13.771352">
        <ele>9</ele>
      </trkpt>
      <trkpt lat="45.549142" lon="13.771432">
        <ele>8.6</ele>
      </trkpt>
      <trkpt lat="45.549162" lon="13.77151">
        <ele>8.2</ele>
      </trkpt>
      <trkpt lat="45.549187" lon="13.771598">
        <ele>8</ele>
      </trkpt>
      <trkpt lat="45.549197" lon="13.771677">
        <ele>7.6</ele>
      </trkpt>
      <trkpt lat="45.54921" lon="13.77173">
        <ele>7.4</ele>
      </trkpt>
      <trkpt lat="45.549255" lon="13.771815">
        <ele>7</ele>
      </trkpt>
      <trkpt lat="45.549277" lon="13.771905">
        <ele>6.8</ele>
      </trkpt>
      <trkpt lat="45.549302" lon="13.771997">
        <ele>6.6</ele>
      </trkpt>
      <trkpt lat="45.549327" lon="13.772082">
        <ele>6.4</ele>
      </trkpt>
      <trkpt lat="45.549352" lon="13.772167">
        <ele>6.2</ele>
      </trkpt>
      <trkpt lat="45.549382" lon="13.772267">
        <ele>6</ele>
      </trkpt>
      <trkpt lat="45.549405" lon="13.772357">
        <ele>6</ele>
      </trkpt>
      <trkpt lat="45.549442" lon="13.772457">
        <ele>5.8</ele>
      </trkpt>
      <trkpt lat="45.549475" lon="13.772547">
        <ele>5.6</ele>
      </trkpt>
      <trkpt lat="45.549502" lon="13.772642">
        <ele>5.4</ele>
      </trkpt>
      <trkpt lat="45.549537" lon="13.772735">
        <ele>5.4</ele>
      </trkpt>
      <trkpt lat="45.549572" lon="13.772825">
        <ele>5.2</ele>
      </trkpt>
      <trkpt lat="45.549602" lon="13.772915">
        <ele>5.2</ele>
      </trkpt>
      <trkpt lat="45.549643" lon="13.772992">
        <ele>5.2</ele>
      </trkpt>
      <trkpt lat="45.549687" lon="13.773072">
        <ele>5.2</ele>
      </trkpt>
      <trkpt lat="45.549717" lon="13.773162">
        <ele>5.2</ele>
      </trkpt>
      <trkpt lat="45.549757" lon="13.77325">
        <ele>5.4</ele>
      </trkpt>
      <trkpt lat="45.549797" lon="13.773337">
        <ele>5.8</ele>
      </trkpt>
      <trkpt lat="45.549837" lon="13.77342">
        <ele>6</ele>
      </trkpt>
      <trkpt lat="45.549857" lon="13.773492">
        <ele>6</ele>
      </trkpt>
      <trkpt lat="45.549887" lon="13.77356">
        <ele>6</ele>
      </trkpt>
      <trkpt lat="45.549917" lon="13.773622">
        <ele>6</ele>
      </trkpt>
      <trkpt lat="45.54995" lon="13.773682">
        <ele>6</ele>
      </trkpt>
      <trkpt lat="45.549982" lon="13.773742">
        <ele>6</ele>
      </trkpt>
      <trkpt lat="45.550007" lon="13.773805">
        <ele>6</ele>
      </trkpt>
      <trkpt lat="45.550023" lon="13.773872">
        <ele>6</ele>
      </trkpt>
      <trkpt lat="45.550042" lon="13.773891">
        <ele>4.99</ele>
      </trkpt>
      <trkpt lat="45.550025" lon="13.773951">
        <ele>4.64</ele>
      </trkpt>
      <trkpt lat="45.549369" lon="13.778925">
        <ele>4.71</ele>
      </trkpt>
      <trkpt lat="45.549317" lon="13.77939">
        <ele>5</ele>
      </trkpt>
      <trkpt lat="45.5493" lon="13.780027">
        <ele>5</ele>
      </trkpt>
      <trkpt lat="45.549324" lon="13.780665">
        <ele>5</ele>
      </trkpt>
      <trkpt lat="45.549373" lon="13.781354">
        <ele>4.67</ele>
      </trkpt>
      <trkpt lat="45.549373" lon="13.781516">
        <ele>4.78</ele>
      </trkpt>
      <trkpt lat="45.5494" lon="13.781593">
        <ele>4.89</ele>
      </trkpt>
      <trkpt lat="45.549505" lon="13.782313">
        <ele>5.14</ele>
      </trkpt>
      <trkpt lat="45.549505" lon="13.782313">
        <ele>5.14</ele>
      </trkpt>
      <trkpt lat="45.550087" lon="13.786292">
        <ele>6.52</ele>
      </trkpt>
      <trkpt lat="45.550298" lon="13.787198">
        <ele>7.61</ele>
      </trkpt>
      <trkpt lat="45.550517" lon="13.787836">
        <ele>7.91</ele>
      </trkpt>
      <trkpt lat="45.550603" lon="13.788082">
        <ele>7.28</ele>
      </trkpt>
      <trkpt lat="45.550694" lon="13.788363">
        <ele>7.71</ele>
      </trkpt>
      <trkpt lat="45.550744" lon="13.788636">
        <ele>7.6</ele>
      </trkpt>
      <trkpt lat="45.550754" lon="13.78873">
        <ele>7.36</ele>
      </trkpt>
      <trkpt lat="45.550765" lon="13.788838">
        <ele>7.07</ele>
      </trkpt>
      <trkpt lat="45.550776" lon="13.789189">
        <ele>7</ele>
      </trkpt>
      <trkpt lat="45.550713" lon="13.790858">
        <ele>7.55</ele>
      </trkpt>
      <trkpt lat="45.550675" lon="13.791371">
        <ele>7.86</ele>
      </trkpt>
      <trkpt lat="45.550662" lon="13.791718">
        <ele>8.95</ele>
      </trkpt>
      <trkpt lat="45.550637" lon="13.792412">
        <ele>8</ele>
      </trkpt>
      <trkpt lat="45.550643" lon="13.792507">
        <ele>8.23</ele>
      </trkpt>
      <trkpt lat="45.550642" lon="13.792507">
        <ele>8.2</ele>
      </trkpt>
      <trkpt lat="45.55065" lon="13.792585">
        <ele>8</ele>
      </trkpt>
      <trkpt lat="45.550675" lon="13.792662">
        <ele>8</ele>
      </trkpt>
      <trkpt lat="45.550713" lon="13.792737">
        <ele>8</ele>
      </trkpt>
      <trkpt lat="45.550755" lon="13.7928">
        <ele>8.2</ele>
      </trkpt>
      <trkpt lat="45.5508" lon="13.792867">
        <ele>8.2</ele>
      </trkpt>
      <trkpt lat="45.550822" lon="13.792937">
        <ele>8.2</ele>
      </trkpt>
      <trkpt lat="45.550832" lon="13.793005">
        <ele>8.4</ele>
      </trkpt>
      <trkpt lat="45.550827" lon="13.793">
        <ele>8.03</ele>
      </trkpt>
      <trkpt lat="45.550661" lon="13.793398">
        <ele>7.99</ele>
      </trkpt>
      <trkpt lat="45.550621" lon="13.793512">
        <ele>8.68</ele>
      </trkpt>
      <trkpt lat="45.550598" lon="13.79362">
        <ele>9.37</ele>
      </trkpt>
      <trkpt lat="45.550618" lon="13.793907">
        <ele>9.66</ele>
      </trkpt>
      <trkpt lat="45.550618" lon="13.793907">
        <ele>9.66</ele>
      </trkpt>
      <trkpt lat="45.550654" lon="13.794108">
        <ele>10.39</ele>
      </trkpt>
      <trkpt lat="45.550654" lon="13.794108">
        <ele>10.39</ele>
      </trkpt>
      <trkpt lat="45.550744" lon="13.794405">
        <ele>10.49</ele>
      </trkpt>
      <trkpt lat="45.550866" lon="13.794711">
        <ele>11.32</ele>
      </trkpt>
      <trkpt lat="45.55101" lon="13.795019">
        <ele>11.86</ele>
      </trkpt>
      <trkpt lat="45.551297" lon="13.795452">
        <ele>13.07</ele>
      </trkpt>
      <trkpt lat="45.551509" lon="13.795803">
        <ele>13.96</ele>
      </trkpt>
      <trkpt lat="45.55168" lon="13.796042">
        <ele>14.8</ele>
      </trkpt>
      <trkpt lat="45.551853" lon="13.796201">
        <ele>15.59</ele>
      </trkpt>
      <trkpt lat="45.551998" lon="13.796323">
        <ele>16.05</ele>
      </trkpt>
      <trkpt lat="45.55223" lon="13.796416">
        <ele>16.97</ele>
      </trkpt>
      <trkpt lat="45.552472" lon="13.79645">
        <ele>17.17</ele>
      </trkpt>
      <trkpt lat="45.552562" lon="13.796441">
        <ele>17.32</ele>
      </trkpt>
      <trkpt lat="45.552562" lon="13.796452">
        <ele>17.2</ele>
      </trkpt>
      <trkpt lat="45.552605" lon="13.796432">
        <ele>17.2</ele>
      </trkpt>
      <trkpt lat="45.552667" lon="13.796407">
        <ele>17.4</ele>
      </trkpt>
      <trkpt lat="45.552727" lon="13.79639">
        <ele>17.6</ele>
      </trkpt>
      <trkpt lat="45.552777" lon="13.796372">
        <ele>17.6</ele>
      </trkpt>
      <trkpt lat="45.552825" lon="13.796347">
        <ele>17.6</ele>
      </trkpt>
      <trkpt lat="45.552885" lon="13.796322">
        <ele>17.8</ele>
      </trkpt>
      <trkpt lat="45.552932" lon="13.796292">
        <ele>18</ele>
      </trkpt>
      <trkpt lat="45.552977" lon="13.796265">
        <ele>18.2</ele>
      </trkpt>
      <trkpt lat="45.55302" lon="13.796242">
        <ele>18.2</ele>
      </trkpt>
      <trkpt lat="45.553062" lon="13.796215">
        <ele>18.4</ele>
      </trkpt>
      <trkpt lat="45.553105" lon="13.796187">
        <ele>18.6</ele>
      </trkpt>
      <trkpt lat="45.553145" lon="13.796162">
        <ele>18.8</ele>
      </trkpt>
      <trkpt lat="45.55318" lon="13.796125">
        <ele>18.8</ele>
      </trkpt>
      <trkpt lat="45.553217" lon="13.796085">
        <ele>19</ele>
      </trkpt>
      <trkpt lat="45.553257" lon="13.796052">
        <ele>19.2</ele>
      </trkpt>
      <trkpt lat="45.553302" lon="13.796015">
        <ele>19.2</ele>
      </trkpt>
      <trkpt lat="45.553352" lon="13.795972">
        <ele>19.2</ele>
      </trkpt>
      <trkpt lat="45.553395" lon="13.795932">
        <ele>19.2</ele>
      </trkpt>
      <trkpt lat="45.553445" lon="13.79589">
        <ele>19.2</ele>
      </trkpt>
      <trkpt lat="45.55349" lon="13.795852">
        <ele>19.2</ele>
      </trkpt>
      <trkpt lat="45.553532" lon="13.795812">
        <ele>19.2</ele>
      </trkpt>
      <trkpt lat="45.553582" lon="13.795777">
        <ele>19.2</ele>
      </trkpt>
      <trkpt lat="45.553625" lon="13.795747">
        <ele>19.2</ele>
      </trkpt>
      <trkpt lat="45.553662" lon="13.795717">
        <ele>19.2</ele>
      </trkpt>
      <trkpt lat="45.553692" lon="13.795672">
        <ele>19.2</ele>
      </trkpt>
      <trkpt lat="45.553762" lon="13.795602">
        <ele>19.2</ele>
      </trkpt>
      <trkpt lat="45.553807" lon="13.795562">
        <ele>19.2</ele>
      </trkpt>
      <trkpt lat="45.553862" lon="13.795527">
        <ele>19.2</ele>
      </trkpt>
      <trkpt lat="45.553907" lon="13.795477">
        <ele>19.2</ele>
      </trkpt>
      <trkpt lat="45.553947" lon="13.795447">
        <ele>19.2</ele>
      </trkpt>
      <trkpt lat="45.553982" lon="13.795407">
        <ele>19.2</ele>
      </trkpt>
      <trkpt lat="45.55403" lon="13.795365">
        <ele>19.2</ele>
      </trkpt>
      <trkpt lat="45.554077" lon="13.795327">
        <ele>19.2</ele>
      </trkpt>
      <trkpt lat="45.554118" lon="13.795285">
        <ele>19.4</ele>
      </trkpt>
      <trkpt lat="45.554162" lon="13.795242">
        <ele>19.4</ele>
      </trkpt>
      <trkpt lat="45.554202" lon="13.795203">
        <ele>19.4</ele>
      </trkpt>
      <trkpt lat="45.554242" lon="13.795152">
        <ele>19.6</ele>
      </trkpt>
      <trkpt lat="45.554277" lon="13.795105">
        <ele>19.6</ele>
      </trkpt>
      <trkpt lat="45.554315" lon="13.795062">
        <ele>19.6</ele>
      </trkpt>
      <trkpt lat="45.554362" lon="13.795017">
        <ele>19.6</ele>
      </trkpt>
      <trkpt lat="45.554407" lon="13.794975">
        <ele>19.8</ele>
      </trkpt>
      <trkpt lat="45.554442" lon="13.794932">
        <ele>19.6</ele>
      </trkpt>
      <trkpt lat="45.554475" lon="13.794897">
        <ele>19.8</ele>
      </trkpt>
      <trkpt lat="45.554507" lon="13.794865">
        <ele>19.6</ele>
      </trkpt>
      <trkpt lat="45.554537" lon="13.794837">
        <ele>19.6</ele>
      </trkpt>
      <trkpt lat="45.554568" lon="13.794812">
        <ele>19.6</ele>
      </trkpt>
      <trkpt lat="45.554602" lon="13.794785">
        <ele>19.6</ele>
      </trkpt>
      <trkpt lat="45.554632" lon="13.794755">
        <ele>19.6</ele>
      </trkpt>
      <trkpt lat="45.554667" lon="13.794717">
        <ele>19.8</ele>
      </trkpt>
      <trkpt lat="45.5547" lon="13.794672">
        <ele>19.8</ele>
      </trkpt>
      <trkpt lat="45.554732" lon="13.794632">
        <ele>20</ele>
      </trkpt>
      <trkpt lat="45.55477" lon="13.794592">
        <ele>20</ele>
      </trkpt>
      <trkpt lat="45.554807" lon="13.794552">
        <ele>20.4</ele>
      </trkpt>
      <trkpt lat="45.554835" lon="13.794525">
        <ele>20.6</ele>
      </trkpt>
      <trkpt lat="45.554855" lon="13.794485">
        <ele>20.8</ele>
      </trkpt>
      <trkpt lat="45.554875" lon="13.794443">
        <ele>21</ele>
      </trkpt>
      <trkpt lat="45.55489" lon="13.794407">
        <ele>21</ele>
      </trkpt>
      <trkpt lat="45.554932" lon="13.794322">
        <ele>21</ele>
      </trkpt>
      <trkpt lat="45.554947" lon="13.794297">
        <ele>21.2</ele>
      </trkpt>
      <trkpt lat="45.554957" lon="13.794265">
        <ele>21.2</ele>
      </trkpt>
      <trkpt lat="45.554952" lon="13.794237">
        <ele>21.2</ele>
      </trkpt>
      <trkpt lat="45.554947" lon="13.794212">
        <ele>21.2</ele>
      </trkpt>
      <trkpt lat="45.554952" lon="13.7942">
        <ele>21.2</ele>
      </trkpt>
      <trkpt lat="45.554962" lon="13.794177">
        <ele>20.8</ele>
      </trkpt>
      <trkpt lat="45.554972" lon="13.794182">
        <ele>20.03</ele>
      </trkpt>
      <trkpt lat="45.554978" lon="13.794159">
        <ele>19.98</ele>
      </trkpt>
      <trkpt lat="45.555048" lon="13.794149">
        <ele>20.27</ele>
      </trkpt>
      <trkpt lat="45.555114" lon="13.794103">
        <ele>20.06</ele>
      </trkpt>
      <trkpt lat="45.555183" lon="13.794038">
        <ele>20.63</ele>
      </trkpt>
      <trkpt lat="45.555183" lon="13.794038">
        <ele>20.63</ele>
      </trkpt>
      <trkpt lat="45.555363" lon="13.793867">
        <ele>22.11</ele>
      </trkpt>
      <trkpt lat="45.555473" lon="13.79382">
        <ele>20.91</ele>
      </trkpt>
      <trkpt lat="45.555606" lon="13.793708">
        <ele>21.31</ele>
      </trkpt>
      <trkpt lat="45.555621" lon="13.793576">
        <ele>21.32</ele>
      </trkpt>
      <trkpt lat="45.555716" lon="13.793586">
        <ele>22.47</ele>
      </trkpt>
      <trkpt lat="45.555757" lon="13.793567">
        <ele>22.72</ele>
      </trkpt>
      <trkpt lat="45.55588" lon="13.793448">
        <ele>23</ele>
      </trkpt>
      <trkpt lat="45.555875" lon="13.793443">
        <ele>23</ele>
      </trkpt>
      <trkpt lat="45.555875" lon="13.793443">
        <ele>23</ele>
      </trkpt>
      <trkpt lat="45.55577" lon="13.793343">
        <ele>23</ele>
      </trkpt>
      <trkpt lat="45.556072" lon="13.792723">
        <ele>23.88</ele>
      </trkpt>
      <trkpt lat="45.556275" lon="13.792112">
        <ele>25.21</ele>
      </trkpt>
      <trkpt lat="45.556339" lon="13.791981">
        <ele>26.13</ele>
      </trkpt>
      <trkpt lat="45.556452" lon="13.791773">
        <ele>26</ele>
      </trkpt>
      <trkpt lat="45.556584" lon="13.791562">
        <ele>24.52</ele>
      </trkpt>
      <trkpt lat="45.556767" lon="13.791321">
        <ele>24.78</ele>
      </trkpt>
      <trkpt lat="45.556938" lon="13.791145">
        <ele>26.34</ele>
      </trkpt>
      <trkpt lat="45.556938" lon="13.791144">
        <ele>26.34</ele>
      </trkpt>
      <trkpt lat="45.557035" lon="13.791072">
        <ele>26.37</ele>
      </trkpt>
      <trkpt lat="45.557035" lon="13.791072">
        <ele>26.37</ele>
      </trkpt>
      <trkpt lat="45.55721" lon="13.790947">
        <ele>26.25</ele>
      </trkpt>
      <trkpt lat="45.557327" lon="13.790916">
        <ele>26.41</ele>
      </trkpt>
      <trkpt lat="45.557327" lon="13.790916">
        <ele>26.41</ele>
      </trkpt>
      <trkpt lat="45.557567" lon="13.79089">
        <ele>29.27</ele>
      </trkpt>
      <trkpt lat="45.557972" lon="13.790649">
        <ele>31.84</ele>
      </trkpt>
      <trkpt lat="45.557972" lon="13.790649">
        <ele>31.84</ele>
      </trkpt>
      <trkpt lat="45.558218" lon="13.790502">
        <ele>33.41</ele>
      </trkpt>
      <trkpt lat="45.558648" lon="13.790144">
        <ele>35.88</ele>
      </trkpt>
      <trkpt lat="45.558724" lon="13.790109">
        <ele>36.83</ele>
      </trkpt>
      <trkpt lat="45.558819" lon="13.790058">
        <ele>36.02</ele>
      </trkpt>
      <trkpt lat="45.558819" lon="13.790058">
        <ele>36.02</ele>
      </trkpt>
      <trkpt lat="45.559388" lon="13.78999">
        <ele>38.13</ele>
      </trkpt>
      <trkpt lat="45.559459" lon="13.789963">
        <ele>41.15</ele>
      </trkpt>
      <trkpt lat="45.55946" lon="13.789958">
        <ele>41.08</ele>
      </trkpt>
      <trkpt lat="45.55946" lon="13.789958">
        <ele>41.09</ele>
      </trkpt>
      <trkpt lat="45.559473" lon="13.789834">
        <ele>39.73</ele>
      </trkpt>
      <trkpt lat="45.559551" lon="13.789456">
        <ele>38.03</ele>
      </trkpt>
      <trkpt lat="45.559612" lon="13.789257">
        <ele>36.54</ele>
      </trkpt>
      <trkpt lat="45.559638" lon="13.789194">
        <ele>36.48</ele>
      </trkpt>
      <trkpt lat="45.559638" lon="13.789194">
        <ele>36.48</ele>
      </trkpt>
      <trkpt lat="45.559744" lon="13.788944">
        <ele>36.24</ele>
      </trkpt>
      <trkpt lat="45.560058" lon="13.788562">
        <ele>36.07</ele>
      </trkpt>
      <trkpt lat="45.560325" lon="13.788281">
        <ele>37.65</ele>
      </trkpt>
      <trkpt lat="45.560325" lon="13.788281">
        <ele>37.65</ele>
      </trkpt>
      <trkpt lat="45.560398" lon="13.788204">
        <ele>38.08</ele>
      </trkpt>
      <trkpt lat="45.560513" lon="13.788103">
        <ele>38.06</ele>
      </trkpt>
      <trkpt lat="45.560641" lon="13.788021">
        <ele>38.37</ele>
      </trkpt>
      <trkpt lat="45.560752" lon="13.78798">
        <ele>38.54</ele>
      </trkpt>
      <trkpt lat="45.560782" lon="13.787982">
        <ele>38.73</ele>
      </trkpt>
      <trkpt lat="45.560927" lon="13.78799">
        <ele>39.68</ele>
      </trkpt>
      <trkpt lat="45.561074" lon="13.788012">
        <ele>38.55</ele>
      </trkpt>
      <trkpt lat="45.561179" lon="13.78808">
        <ele>38.48</ele>
      </trkpt>
      <trkpt lat="45.56118" lon="13.788077">
        <ele>39.6</ele>
      </trkpt>
      <trkpt lat="45.561179" lon="13.78808">
        <ele>38.48</ele>
      </trkpt>
      <trkpt lat="45.561281" lon="13.788173">
        <ele>38.64</ele>
      </trkpt>
      <trkpt lat="45.561281" lon="13.788173">
        <ele>38.65</ele>
      </trkpt>
      <trkpt lat="45.561334" lon="13.788221">
        <ele>38.73</ele>
      </trkpt>
      <trkpt lat="45.561489" lon="13.788501">
        <ele>40.73</ele>
      </trkpt>
      <trkpt lat="45.561489" lon="13.788501">
        <ele>40.74</ele>
      </trkpt>
      <trkpt lat="45.561752" lon="13.788994">
        <ele>42.27</ele>
      </trkpt>
      <trkpt lat="45.561825" lon="13.789185">
        <ele>43.9</ele>
      </trkpt>
      <trkpt lat="45.56204" lon="13.78948">
        <ele>41.41</ele>
      </trkpt>
      <trkpt lat="45.562082" lon="13.789597">
        <ele>41.7</ele>
      </trkpt>
      <trkpt lat="45.562105" lon="13.789795">
        <ele>44.2</ele>
      </trkpt>
      <trkpt lat="45.562141" lon="13.790053">
        <ele>45.25</ele>
      </trkpt>
      <trkpt lat="45.562162" lon="13.790154">
        <ele>45.55</ele>
      </trkpt>
      <trkpt lat="45.562162" lon="13.790154">
        <ele>45.55</ele>
      </trkpt>
      <trkpt lat="45.562237" lon="13.790521">
        <ele>46.67</ele>
      </trkpt>
      <trkpt lat="45.562325" lon="13.790843">
        <ele>47.73</ele>
      </trkpt>
      <trkpt lat="45.562422" lon="13.791099">
        <ele>49.15</ele>
      </trkpt>
      <trkpt lat="45.562422" lon="13.791099">
        <ele>49.15</ele>
      </trkpt>
      <trkpt lat="45.562734" lon="13.791816">
        <ele>50.89</ele>
      </trkpt>
      <trkpt lat="45.562898" lon="13.792168">
        <ele>51.7</ele>
      </trkpt>
      <trkpt lat="45.563065" lon="13.792467">
        <ele>50.98</ele>
      </trkpt>
      <trkpt lat="45.563065" lon="13.792467">
        <ele>50.98</ele>
      </trkpt>
      <trkpt lat="45.563217" lon="13.792649">
        <ele>52.37</ele>
      </trkpt>
      <trkpt lat="45.563367" lon="13.792739">
        <ele>52.75</ele>
      </trkpt>
      <trkpt lat="45.563511" lon="13.79279">
        <ele>51.81</ele>
      </trkpt>
      <trkpt lat="45.563633" lon="13.79277">
        <ele>50.48</ele>
      </trkpt>
      <trkpt lat="45.563633" lon="13.79277">
        <ele>50.49</ele>
      </trkpt>
      <trkpt lat="45.563677" lon="13.792763">
        <ele>50.02</ele>
      </trkpt>
      <trkpt lat="45.563854" lon="13.792678">
        <ele>50.71</ele>
      </trkpt>
      <trkpt lat="45.563905" lon="13.792633">
        <ele>51.49</ele>
      </trkpt>
      <trkpt lat="45.563905" lon="13.792633">
        <ele>51.48</ele>
      </trkpt>
      <trkpt lat="45.564007" lon="13.792542">
        <ele>53.03</ele>
      </trkpt>
      <trkpt lat="45.564128" lon="13.792372">
        <ele>55.15</ele>
      </trkpt>
      <trkpt lat="45.564206" lon="13.792181">
        <ele>56.66</ele>
      </trkpt>
      <trkpt lat="45.564264" lon="13.791937">
        <ele>57</ele>
      </trkpt>
      <trkpt lat="45.564278" lon="13.791782">
        <ele>57.38</ele>
      </trkpt>
      <trkpt lat="45.564283" lon="13.79163">
        <ele>58.36</ele>
      </trkpt>
      <trkpt lat="45.564175" lon="13.790962">
        <ele>57.62</ele>
      </trkpt>
      <trkpt lat="45.564175" lon="13.790962">
        <ele>57.62</ele>
      </trkpt>
      <trkpt lat="45.564158" lon="13.790859">
        <ele>57.38</ele>
      </trkpt>
      <trkpt lat="45.564137" lon="13.790488">
        <ele>57.71</ele>
      </trkpt>
      <trkpt lat="45.564151" lon="13.790071">
        <ele>58.15</ele>
      </trkpt>
      <trkpt lat="45.56424" lon="13.78912">
        <ele>60.32</ele>
      </trkpt>
      <trkpt lat="45.564246" lon="13.788746">
        <ele>61.3</ele>
      </trkpt>
      <trkpt lat="45.564188" lon="13.787735">
        <ele>61.36</ele>
      </trkpt>
      <trkpt lat="45.564199" lon="13.787521">
        <ele>61.32</ele>
      </trkpt>
      <trkpt lat="45.564217" lon="13.787464">
        <ele>61.5</ele>
      </trkpt>
      <trkpt lat="45.564268" lon="13.787304">
        <ele>62.03</ele>
      </trkpt>
      <trkpt lat="45.56435" lon="13.787147">
        <ele>63.43</ele>
      </trkpt>
      <trkpt lat="45.564389" lon="13.787095">
        <ele>63.79</ele>
      </trkpt>
      <trkpt lat="45.564387" lon="13.787092">
        <ele>63.2</ele>
      </trkpt>
      <trkpt lat="45.564389" lon="13.787095">
        <ele>63.79</ele>
      </trkpt>
      <trkpt lat="45.564466" lon="13.787003">
        <ele>64.5</ele>
      </trkpt>
      <trkpt lat="45.564466" lon="13.787003">
        <ele>64.5</ele>
      </trkpt>
      <trkpt lat="45.564539" lon="13.786936">
        <ele>65.15</ele>
      </trkpt>
      <trkpt lat="45.564652" lon="13.786857">
        <ele>66.19</ele>
      </trkpt>
      <trkpt lat="45.56481" lon="13.786808">
        <ele>66.61</ele>
      </trkpt>
      <trkpt lat="45.564936" lon="13.786787">
        <ele>65.98</ele>
      </trkpt>
      <trkpt lat="45.565036" lon="13.786814">
        <ele>65.91</ele>
      </trkpt>
      <trkpt lat="45.565126" lon="13.786862">
        <ele>65.76</ele>
      </trkpt>
      <trkpt lat="45.565126" lon="13.786863">
        <ele>65.76</ele>
      </trkpt>
      <trkpt lat="45.56544" lon="13.787054">
        <ele>66.21</ele>
      </trkpt>
      <trkpt lat="45.565487" lon="13.7871">
        <ele>66.21</ele>
      </trkpt>
      <trkpt lat="45.565642" lon="13.787213">
        <ele>64.97</ele>
      </trkpt>
      <trkpt lat="45.565746" lon="13.787266">
        <ele>65.95</ele>
      </trkpt>
      <trkpt lat="45.566292" lon="13.787391">
        <ele>69.51</ele>
      </trkpt>
      <trkpt lat="45.566521" lon="13.787455">
        <ele>69.88</ele>
      </trkpt>
      <trkpt lat="45.566708" lon="13.787604">
        <ele>70.47</ele>
      </trkpt>
      <trkpt lat="45.566931" lon="13.787843">
        <ele>71.25</ele>
      </trkpt>
      <trkpt lat="45.566985" lon="13.787935">
        <ele>71.57</ele>
      </trkpt>
      <trkpt lat="45.56734" lon="13.788531">
        <ele>73.67</ele>
      </trkpt>
      <trkpt lat="45.567522" lon="13.7889">
        <ele>74.23</ele>
      </trkpt>
      <trkpt lat="45.568571" lon="13.790828">
        <ele>74.74</ele>
      </trkpt>
      <trkpt lat="45.568747" lon="13.791055">
        <ele>74.61</ele>
      </trkpt>
      <trkpt lat="45.568737" lon="13.791085">
        <ele>72.8</ele>
      </trkpt>
      <trkpt lat="45.568777" lon="13.791115">
        <ele>72.4</ele>
      </trkpt>
      <trkpt lat="45.568822" lon="13.79114">
        <ele>72.2</ele>
      </trkpt>
      <trkpt lat="45.568862" lon="13.79116">
        <ele>72</ele>
      </trkpt>
      <trkpt lat="45.5689" lon="13.791165">
        <ele>71.8</ele>
      </trkpt>
      <trkpt lat="45.568962" lon="13.791155">
        <ele>71.4</ele>
      </trkpt>
      <trkpt lat="45.568987" lon="13.791147">
        <ele>71.2</ele>
      </trkpt>
      <trkpt lat="45.569005" lon="13.791125">
        <ele>71.2</ele>
      </trkpt>
      <trkpt lat="45.56902" lon="13.79106">
        <ele>70.8</ele>
      </trkpt>
      <trkpt lat="45.569027" lon="13.790957">
        <ele>70.2</ele>
      </trkpt>
      <trkpt lat="45.56903" lon="13.790897">
        <ele>70</ele>
      </trkpt>
      <trkpt lat="45.569032" lon="13.790762">
        <ele>69.8</ele>
      </trkpt>
      <trkpt lat="45.569032" lon="13.79069">
        <ele>69.6</ele>
      </trkpt>
      <trkpt lat="45.569032" lon="13.790625">
        <ele>69.4</ele>
      </trkpt>
      <trkpt lat="45.569035" lon="13.790567">
        <ele>69.4</ele>
      </trkpt>
      <trkpt lat="45.569052" lon="13.790527">
        <ele>69.2</ele>
      </trkpt>
      <trkpt lat="45.569082" lon="13.790512">
        <ele>69.2</ele>
      </trkpt>
      <trkpt lat="45.569094" lon="13.79049">
        <ele>70.46</ele>
      </trkpt>
      <trkpt lat="45.569254" lon="13.790725">
        <ele>71.13</ele>
      </trkpt>
      <trkpt lat="45.569254" lon="13.790725">
        <ele>71.13</ele>
      </trkpt>
      <trkpt lat="45.56931" lon="13.790806">
        <ele>71.36</ele>
      </trkpt>
      <trkpt lat="45.56943" lon="13.790861">
        <ele>70.8</ele>
      </trkpt>
      <trkpt lat="45.569491" lon="13.790944">
        <ele>70.87</ele>
      </trkpt>
      <trkpt lat="45.569491" lon="13.790944">
        <ele>70.87</ele>
      </trkpt>
      <trkpt lat="45.56959" lon="13.791081">
        <ele>70.99</ele>
      </trkpt>
      <trkpt lat="45.569546" lon="13.791219">
        <ele>71.16</ele>
      </trkpt>
      <trkpt lat="45.569557" lon="13.791309">
        <ele>71.34</ele>
      </trkpt>
      <trkpt lat="45.569641" lon="13.791456">
        <ele>72</ele>
      </trkpt>
      <trkpt lat="45.569646" lon="13.791459">
        <ele>71.99</ele>
      </trkpt>
      <trkpt lat="45.569647" lon="13.791457">
        <ele>70.6</ele>
      </trkpt>
      <trkpt lat="45.569647" lon="13.791512">
        <ele>70.6</ele>
      </trkpt>
      <trkpt lat="45.569642" lon="13.791567">
        <ele>70.6</ele>
      </trkpt>
      <trkpt lat="45.569647" lon="13.791617">
        <ele>70.6</ele>
      </trkpt>
      <trkpt lat="45.569662" lon="13.791667">
        <ele>70.6</ele>
      </trkpt>
      <trkpt lat="45.569682" lon="13.791717">
        <ele>70.6</ele>
      </trkpt>
      <trkpt lat="45.569707" lon="13.791765">
        <ele>70.4</ele>
      </trkpt>
      <trkpt lat="45.5697" lon="13.791775">
        <ele>71.71</ele>
      </trkpt>
      <trkpt lat="45.570248" lon="13.792601">
        <ele>70.39</ele>
      </trkpt>
      <trkpt lat="45.570321" lon="13.792712">
        <ele>70.21</ele>
      </trkpt>
      <trkpt lat="45.571074" lon="13.79401">
        <ele>70.97</ele>
      </trkpt>
      <trkpt lat="45.571072" lon="13.794012">
        <ele>70.6</ele>
      </trkpt>
      <trkpt lat="45.571092" lon="13.79404">
        <ele>70.6</ele>
      </trkpt>
      <trkpt lat="45.571137" lon="13.794082">
        <ele>70.6</ele>
      </trkpt>
      <trkpt lat="45.571165" lon="13.794102">
        <ele>70.8</ele>
      </trkpt>
      <trkpt lat="45.571192" lon="13.794122">
        <ele>71</ele>
      </trkpt>
      <trkpt lat="45.571225" lon="13.794147">
        <ele>71.2</ele>
      </trkpt>
      <trkpt lat="45.571262" lon="13.794177">
        <ele>71.4</ele>
      </trkpt>
      <trkpt lat="45.5713" lon="13.794207">
        <ele>71.6</ele>
      </trkpt>
      <trkpt lat="45.571342" lon="13.794235">
        <ele>71.8</ele>
      </trkpt>
      <trkpt lat="45.571385" lon="13.794262">
        <ele>72</ele>
      </trkpt>
      <trkpt lat="45.571427" lon="13.794287">
        <ele>72.2</ele>
      </trkpt>
      <trkpt lat="45.571468" lon="13.79431">
        <ele>72.2</ele>
      </trkpt>
      <trkpt lat="45.57147" lon="13.7943">
        <ele>72.54</ele>
      </trkpt>
      <trkpt lat="45.571626" lon="13.794346">
        <ele>73.12</ele>
      </trkpt>
      <trkpt lat="45.571749" lon="13.794339">
        <ele>72.92</ele>
      </trkpt>
      <trkpt lat="45.571749" lon="13.794339">
        <ele>72.92</ele>
      </trkpt>
      <trkpt lat="45.571756" lon="13.794339">
        <ele>72.9</ele>
      </trkpt>
      <trkpt lat="45.571881" lon="13.794307">
        <ele>71.98</ele>
      </trkpt>
      <trkpt lat="45.571944" lon="13.794281">
        <ele>71.35</ele>
      </trkpt>
      <trkpt lat="45.572061" lon="13.794151">
        <ele>69.53</ele>
      </trkpt>
      <trkpt lat="45.572061" lon="13.794151">
        <ele>69.52</ele>
      </trkpt>
      <trkpt lat="45.572082" lon="13.794128">
        <ele>69.2</ele>
      </trkpt>
      <trkpt lat="45.572157" lon="13.794009">
        <ele>68.46</ele>
      </trkpt>
      <trkpt lat="45.572289" lon="13.793747">
        <ele>66.04</ele>
      </trkpt>
      <trkpt lat="45.572385" lon="13.793528">
        <ele>65.34</ele>
      </trkpt>
      <trkpt lat="45.572455" lon="13.793325">
        <ele>66</ele>
      </trkpt>
      <trkpt lat="45.572515" lon="13.793113">
        <ele>64.76</ele>
      </trkpt>
      <trkpt lat="45.572577" lon="13.792968">
        <ele>64.85</ele>
      </trkpt>
      <trkpt lat="45.572662" lon="13.79284">
        <ele>63.96</ele>
      </trkpt>
      <trkpt lat="45.572763" lon="13.792732">
        <ele>63.87</ele>
      </trkpt>
      <trkpt lat="45.572822" lon="13.792642">
        <ele>63.06</ele>
      </trkpt>
      <trkpt lat="45.572843" lon="13.792581">
        <ele>62.73</ele>
      </trkpt>
      <trkpt lat="45.572843" lon="13.792581">
        <ele>62.73</ele>
      </trkpt>
      <trkpt lat="45.57285" lon="13.792558">
        <ele>62.61</ele>
      </trkpt>
      <trkpt lat="45.572818" lon="13.792445">
        <ele>62.72</ele>
      </trkpt>
      <trkpt lat="45.572734" lon="13.792312">
        <ele>63.45</ele>
      </trkpt>
      <trkpt lat="45.572734" lon="13.792312">
        <ele>63.45</ele>
      </trkpt>
      <trkpt lat="45.572734" lon="13.792312">
        <ele>63.45</ele>
      </trkpt>
      <trkpt lat="45.572281" lon="13.79161">
        <ele>67.88</ele>
      </trkpt>
      <trkpt lat="45.572253" lon="13.7915">
        <ele>68.75</ele>
      </trkpt>
      <trkpt lat="45.572253" lon="13.7915">
        <ele>68.75</ele>
      </trkpt>
      <trkpt lat="45.572153" lon="13.791104">
        <ele>71.91</ele>
      </trkpt>
      <trkpt lat="45.572066" lon="13.790914">
        <ele>73.48</ele>
      </trkpt>
      <trkpt lat="45.572077" lon="13.79081">
        <ele>73.9</ele>
      </trkpt>
      <trkpt lat="45.572088" lon="13.79078">
        <ele>74.03</ele>
      </trkpt>
      <trkpt lat="45.572088" lon="13.79078">
        <ele>74.03</ele>
      </trkpt>
      <trkpt lat="45.572139" lon="13.790653">
        <ele>74.52</ele>
      </trkpt>
      <trkpt lat="45.572139" lon="13.790653">
        <ele>74.52</ele>
      </trkpt>
      <trkpt lat="45.572166" lon="13.790598">
        <ele>74.68</ele>
      </trkpt>
      <trkpt lat="45.57224" lon="13.790587">
        <ele>74.2</ele>
      </trkpt>
      <trkpt lat="45.572284" lon="13.790609">
        <ele>74.42</ele>
      </trkpt>
      <trkpt lat="45.572284" lon="13.790609">
        <ele>74.42</ele>
      </trkpt>
      <trkpt lat="45.57232" lon="13.790627">
        <ele>74.6</ele>
      </trkpt>
      <trkpt lat="45.572414" lon="13.79076">
        <ele>74.49</ele>
      </trkpt>
      <trkpt lat="45.572498" lon="13.790778">
        <ele>75.04</ele>
      </trkpt>
      <trkpt lat="45.572612" lon="13.790766">
        <ele>75.91</ele>
      </trkpt>
      <trkpt lat="45.572631" lon="13.790812">
        <ele>75.71</ele>
      </trkpt>
      <trkpt lat="45.572631" lon="13.790812">
        <ele>75.71</ele>
      </trkpt>
      <trkpt lat="45.57273" lon="13.791049">
        <ele>74.68</ele>
      </trkpt>
      <trkpt lat="45.573072" lon="13.791714">
        <ele>72.97</ele>
      </trkpt>
      <trkpt lat="45.573672" lon="13.792806">
        <ele>67.17</ele>
      </trkpt>
      <trkpt lat="45.573672" lon="13.792806">
        <ele>67.17</ele>
      </trkpt>
      <trkpt lat="45.57381" lon="13.793003">
        <ele>66.92</ele>
      </trkpt>
      <trkpt lat="45.57405" lon="13.793266">
        <ele>65.77</ele>
      </trkpt>
      <trkpt lat="45.57405" lon="13.793266">
        <ele>65.77</ele>
      </trkpt>
      <trkpt lat="45.574281" lon="13.793453">
        <ele>64.37</ele>
      </trkpt>
      <trkpt lat="45.57476" lon="13.793722">
        <ele>58.26</ele>
      </trkpt>
      <trkpt lat="45.575581" lon="13.794066">
        <ele>59.34</ele>
      </trkpt>
      <trkpt lat="45.575609" lon="13.794092">
        <ele>59.07</ele>
      </trkpt>
      <trkpt lat="45.575752" lon="13.794126">
        <ele>58.81</ele>
      </trkpt>
      <trkpt lat="45.575776" lon="13.794145">
        <ele>58.58</ele>
      </trkpt>
      <trkpt lat="45.575776" lon="13.794145">
        <ele>58.58</ele>
      </trkpt>
      <trkpt lat="45.575752" lon="13.794126">
        <ele>58.81</ele>
      </trkpt>
      <trkpt lat="45.576003" lon="13.794143">
        <ele>58.72</ele>
      </trkpt>
      <trkpt lat="45.576404" lon="13.794128">
        <ele>56.59</ele>
      </trkpt>
      <trkpt lat="45.576891" lon="13.794133">
        <ele>54.59</ele>
      </trkpt>
      <trkpt lat="45.577684" lon="13.794142">
        <ele>54.97</ele>
      </trkpt>
      <trkpt lat="45.577948" lon="13.794145">
        <ele>53.26</ele>
      </trkpt>
      <trkpt lat="45.578209" lon="13.794168">
        <ele>47.98</ele>
      </trkpt>
      <trkpt lat="45.5783" lon="13.794204">
        <ele>48.32</ele>
      </trkpt>
      <trkpt lat="45.5783" lon="13.794204">
        <ele>48.32</ele>
      </trkpt>
      <trkpt lat="45.579145" lon="13.794661">
        <ele>48.01</ele>
      </trkpt>
      <trkpt lat="45.57932" lon="13.794782">
        <ele>46.54</ele>
      </trkpt>
      <trkpt lat="45.579949" lon="13.795076">
        <ele>44.83</ele>
      </trkpt>
      <trkpt lat="45.580191" lon="13.795131">
        <ele>43.87</ele>
      </trkpt>
      <trkpt lat="45.580359" lon="13.795128">
        <ele>42.83</ele>
      </trkpt>
      <trkpt lat="45.580559" lon="13.795077">
        <ele>41.88</ele>
      </trkpt>
      <trkpt lat="45.580711" lon="13.795022">
        <ele>43.15</ele>
      </trkpt>
      <trkpt lat="45.580818" lon="13.794956">
        <ele>45.06</ele>
      </trkpt>
      <trkpt lat="45.580929" lon="13.794871">
        <ele>45.86</ele>
      </trkpt>
      <trkpt lat="45.581066" lon="13.794735">
        <ele>46.31</ele>
      </trkpt>
      <trkpt lat="45.581273" lon="13.794465">
        <ele>47</ele>
      </trkpt>
      <trkpt lat="45.581537" lon="13.794191">
        <ele>42.21</ele>
      </trkpt>
      <trkpt lat="45.581636" lon="13.794112">
        <ele>40.04</ele>
      </trkpt>
      <trkpt lat="45.581806" lon="13.794048">
        <ele>38.86</ele>
      </trkpt>
      <trkpt lat="45.581848" lon="13.794051">
        <ele>38.62</ele>
      </trkpt>
      <trkpt lat="45.581847" lon="13.794085">
        <ele>43.4</ele>
      </trkpt>
      <trkpt lat="45.581848" lon="13.794051">
        <ele>38.62</ele>
      </trkpt>
      <trkpt lat="45.581974" lon="13.794062">
        <ele>37.9</ele>
      </trkpt>
      <trkpt lat="45.582" lon="13.794076">
        <ele>37.64</ele>
      </trkpt>
      <trkpt lat="45.582163" lon="13.794142">
        <ele>38.61</ele>
      </trkpt>
      <trkpt lat="45.582366" lon="13.794261">
        <ele>40.77</ele>
      </trkpt>
      <trkpt lat="45.582569" lon="13.794379">
        <ele>40.03</ele>
      </trkpt>
      <trkpt lat="45.582883" lon="13.794588">
        <ele>40.22</ele>
      </trkpt>
      <trkpt lat="45.583585" lon="13.795008">
        <ele>37.06</ele>
      </trkpt>
      <trkpt lat="45.583982" lon="13.795148">
        <ele>34.25</ele>
      </trkpt>
      <trkpt lat="45.583982" lon="13.795145">
        <ele>38</ele>
      </trkpt>
      <trkpt lat="45.583982" lon="13.795148">
        <ele>34.25</ele>
      </trkpt>
      <trkpt lat="45.583996" lon="13.795153">
        <ele>34.15</ele>
      </trkpt>
      <trkpt lat="45.584357" lon="13.795111">
        <ele>31.49</ele>
      </trkpt>
      <trkpt lat="45.584357" lon="13.795112">
        <ele>31.5</ele>
      </trkpt>
      <trkpt lat="45.584583" lon="13.795086">
        <ele>29.84</ele>
      </trkpt>
      <trkpt lat="45.585108" lon="13.794987">
        <ele>28</ele>
      </trkpt>
      <trkpt lat="45.585574" lon="13.794943">
        <ele>28.58</ele>
      </trkpt>
      <trkpt lat="45.586059" lon="13.794861">
        <ele>30.13</ele>
      </trkpt>
      <trkpt lat="45.586489" lon="13.794769">
        <ele>32.2</ele>
      </trkpt>
      <trkpt lat="45.586791" lon="13.794739">
        <ele>33.32</ele>
      </trkpt>
      <trkpt lat="45.586881" lon="13.794709">
        <ele>33.85</ele>
      </trkpt>
      <trkpt lat="45.586891" lon="13.794726">
        <ele>33.55</ele>
      </trkpt>
      <trkpt lat="45.586908" lon="13.794756">
        <ele>33.04</ele>
      </trkpt>
      <trkpt lat="45.586913" lon="13.794817">
        <ele>32.03</ele>
      </trkpt>
      <trkpt lat="45.586872" lon="13.795254">
        <ele>27.94</ele>
      </trkpt>
      <trkpt lat="45.586853" lon="13.795311">
        <ele>26.61</ele>
      </trkpt>
      <trkpt lat="45.586791" lon="13.795353">
        <ele>25.63</ele>
      </trkpt>
      <trkpt lat="45.586768" lon="13.795464">
        <ele>22.81</ele>
      </trkpt>
      <trkpt lat="45.58677" lon="13.795633">
        <ele>19.58</ele>
      </trkpt>
      <trkpt lat="45.586783" lon="13.79593">
        <ele>17.7</ele>
      </trkpt>
      <trkpt lat="45.586802" lon="13.796035">
        <ele>16.6</ele>
      </trkpt>
      <trkpt lat="45.58681" lon="13.796032">
        <ele>17.2</ele>
      </trkpt>
      <trkpt lat="45.586802" lon="13.796035">
        <ele>16.6</ele>
      </trkpt>
      <trkpt lat="45.58684" lon="13.79631">
        <ele>14.64</ele>
      </trkpt>
      <trkpt lat="45.586894" lon="13.796606">
        <ele>13</ele>
      </trkpt>
      <trkpt lat="45.586942" lon="13.796601">
        <ele>13</ele>
      </trkpt>
      <trkpt lat="45.587196" lon="13.796594">
        <ele>13</ele>
      </trkpt>
      <trkpt lat="45.587196" lon="13.796594">
        <ele>13</ele>
      </trkpt>
      <trkpt lat="45.587196" lon="13.796594">
        <ele>13</ele>
      </trkpt>
      <trkpt lat="45.58694" lon="13.796602">
        <ele>13</ele>
      </trkpt>
      <trkpt lat="45.58694" lon="13.796601">
        <ele>13</ele>
      </trkpt>
      <trkpt lat="45.587328" lon="13.796593">
        <ele>13</ele>
      </trkpt>
      <trkpt lat="45.587727" lon="13.79661">
        <ele>13.9</ele>
      </trkpt>
      <trkpt lat="45.588196" lon="13.79658">
        <ele>14</ele>
      </trkpt>
      <trkpt lat="45.588422" lon="13.796554">
        <ele>14</ele>
      </trkpt>
      <trkpt lat="45.588798" lon="13.796622">
        <ele>13.83</ele>
      </trkpt>
      <trkpt lat="45.589008" lon="13.796589">
        <ele>14</ele>
      </trkpt>
      <trkpt lat="45.589217" lon="13.796521">
        <ele>14</ele>
      </trkpt>
      <trkpt lat="45.589495" lon="13.79648">
        <ele>14</ele>
      </trkpt>
      <trkpt lat="45.589785" lon="13.796455">
        <ele>14</ele>
      </trkpt>
      <trkpt lat="45.590013" lon="13.796365">
        <ele>15</ele>
      </trkpt>
      <trkpt lat="45.59027" lon="13.79622">
        <ele>15.17</ele>
      </trkpt>
      <trkpt lat="45.59057" lon="13.795946">
        <ele>16.76</ele>
      </trkpt>
      <trkpt lat="45.590656" lon="13.795925">
        <ele>16.88</ele>
      </trkpt>
      <trkpt lat="45.590656" lon="13.796044">
        <ele>16.19</ele>
      </trkpt>
      <trkpt lat="45.590656" lon="13.796044">
        <ele>16.19</ele>
      </trkpt>
      <trkpt lat="45.59067" lon="13.796332">
        <ele>15.11</ele>
      </trkpt>
      <trkpt lat="45.59067" lon="13.796332">
        <ele>15.11</ele>
      </trkpt>
      <trkpt lat="45.59068" lon="13.796484">
        <ele>14.63</ele>
      </trkpt>
      <trkpt lat="45.590677" lon="13.79703">
        <ele>13</ele>
      </trkpt>
      <trkpt lat="45.590582" lon="13.797118">
        <ele>13.07</ele>
      </trkpt>
      <trkpt lat="45.590582" lon="13.797118">
        <ele>13.07</ele>
      </trkpt>
      <trkpt lat="45.589389" lon="13.798215">
        <ele>14</ele>
      </trkpt>
      <trkpt lat="45.589389" lon="13.798231">
        <ele>14</ele>
      </trkpt>
      <trkpt lat="45.589407" lon="13.798278">
        <ele>14</ele>
      </trkpt>
      <trkpt lat="45.589407" lon="13.798278">
        <ele>14</ele>
      </trkpt>
      <trkpt lat="45.589445" lon="13.798366">
        <ele>14</ele>
      </trkpt>
      <trkpt lat="45.589451" lon="13.798366">
        <ele>14</ele>
      </trkpt>
      <trkpt lat="45.589451" lon="13.798366">
        <ele>14</ele>
      </trkpt>
      <trkpt lat="45.589809" lon="13.798072">
        <ele>13.6</ele>
      </trkpt>
      <trkpt lat="45.590285" lon="13.797725">
        <ele>13</ele>
      </trkpt>
      <trkpt lat="45.590345" lon="13.797695">
        <ele>13</ele>
      </trkpt>
      <trkpt lat="45.590414" lon="13.7977">
        <ele>13</ele>
      </trkpt>
      <trkpt lat="45.590474" lon="13.797736">
        <ele>13</ele>
      </trkpt>
      <trkpt lat="45.590477" lon="13.797725">
        <ele>6.6</ele>
      </trkpt>
      <trkpt lat="45.590474" lon="13.797736">
        <ele>13</ele>
      </trkpt>
      <trkpt lat="45.590508" lon="13.797772">
        <ele>13</ele>
      </trkpt>
      <trkpt lat="45.590517" lon="13.7978">
        <ele>13</ele>
      </trkpt>
      <trkpt lat="45.590503" lon="13.797901">
        <ele>13</ele>
      </trkpt>
      <trkpt lat="45.590505" lon="13.797971">
        <ele>13.03</ele>
      </trkpt>
      <trkpt lat="45.590391" lon="13.798558">
        <ele>14</ele>
      </trkpt>
      <trkpt lat="45.590378" lon="13.798592">
        <ele>14</ele>
      </trkpt>
      <trkpt lat="45.590416" lon="13.798613">
        <ele>14</ele>
      </trkpt>
      <trkpt lat="45.590415" lon="13.798615">
        <ele>6</ele>
      </trkpt>
      <trkpt lat="45.590416" lon="13.798613">
        <ele>14</ele>
      </trkpt>
      <trkpt lat="45.590451" lon="13.798644">
        <ele>14</ele>
      </trkpt>
      <trkpt lat="45.590465" lon="13.798617">
        <ele>14</ele>
      </trkpt>
      <trkpt lat="45.590498" lon="13.79859">
        <ele>14</ele>
      </trkpt>
      <trkpt lat="45.590577" lon="13.798548">
        <ele>14</ele>
      </trkpt>
      <trkpt lat="45.590662" lon="13.79856">
        <ele>14</ele>
      </trkpt>
      <trkpt lat="45.590737" lon="13.798614">
        <ele>14</ele>
      </trkpt>
      <trkpt lat="45.590766" lon="13.798654">
        <ele>14</ele>
      </trkpt>
      <trkpt lat="45.590837" lon="13.798815">
        <ele>14</ele>
      </trkpt>
      <trkpt lat="45.590909" lon="13.798746">
        <ele>14</ele>
      </trkpt>
      <trkpt lat="45.591122" lon="13.79929">
        <ele>15.68</ele>
      </trkpt>
      <trkpt lat="45.591145" lon="13.799229">
        <ele>15.41</ele>
      </trkpt>
      <trkpt lat="45.591145" lon="13.799229">
        <ele>15.41</ele>
      </trkpt>
      <trkpt lat="45.591487" lon="13.798259">
        <ele>13.97</ele>
      </trkpt>
      <trkpt lat="45.591601" lon="13.797742">
        <ele>13</ele>
      </trkpt>
      <trkpt lat="45.591683" lon="13.7973">
        <ele>13</ele>
      </trkpt>
      <trkpt lat="45.591776" lon="13.796935">
        <ele>13.01</ele>
      </trkpt>
      <trkpt lat="45.591901" lon="13.796484">
        <ele>14.63</ele>
      </trkpt>
      <trkpt lat="45.591974" lon="13.796263">
        <ele>15</ele>
      </trkpt>
      <trkpt lat="45.592086" lon="13.795997">
        <ele>16.47</ele>
      </trkpt>
      <trkpt lat="45.592086" lon="13.795997">
        <ele>16.47</ele>
      </trkpt>
      <trkpt lat="45.592086" lon="13.795997">
        <ele>16.47</ele>
      </trkpt>
      <trkpt lat="45.592196" lon="13.795783">
        <ele>17.7</ele>
      </trkpt>
      <trkpt lat="45.592288" lon="13.795517">
        <ele>23.09</ele>
      </trkpt>
      <trkpt lat="45.592355" lon="13.79522">
        <ele>41.57</ele>
      </trkpt>
      <trkpt lat="45.592484" lon="13.794921">
        <ele>39.11</ele>
      </trkpt>
      <trkpt lat="45.592523" lon="13.794858">
        <ele>35.41</ele>
      </trkpt>
      <trkpt lat="45.592523" lon="13.794858">
        <ele>35.41</ele>
      </trkpt>
      <trkpt lat="45.592726" lon="13.794525">
        <ele>13.6</ele>
      </trkpt>
      <trkpt lat="45.592786" lon="13.794404">
        <ele>8.2</ele>
      </trkpt>
      <trkpt lat="45.592978" lon="13.794098">
        <ele>4</ele>
      </trkpt>
      <trkpt lat="45.593171" lon="13.793792">
        <ele>3.75</ele>
      </trkpt>
      <trkpt lat="45.593427" lon="13.793315">
        <ele>3.96</ele>
      </trkpt>
      <trkpt lat="45.593903" lon="13.79251">
        <ele>4</ele>
      </trkpt>
      <trkpt lat="45.594062" lon="13.792192">
        <ele>3.41</ele>
      </trkpt>
      <trkpt lat="45.594232" lon="13.79193">
        <ele>3.71</ele>
      </trkpt>
      <trkpt lat="45.594354" lon="13.791699">
        <ele>3.43</ele>
      </trkpt>
      <trkpt lat="45.594678" lon="13.791259">
        <ele>3.6</ele>
      </trkpt>
      <trkpt lat="45.594698" lon="13.791256">
        <ele>3.73</ele>
      </trkpt>
      <trkpt lat="45.594752" lon="13.791174">
        <ele>3.34</ele>
      </trkpt>
      <trkpt lat="45.594762" lon="13.791123">
        <ele>2.96</ele>
      </trkpt>
      <trkpt lat="45.594879" lon="13.790942">
        <ele>2.78</ele>
      </trkpt>
      <trkpt lat="45.595667" lon="13.789524">
        <ele>2.82</ele>
      </trkpt>
      <trkpt lat="45.595815" lon="13.789258">
        <ele>4</ele>
      </trkpt>
      <trkpt lat="45.595895" lon="13.78908">
        <ele>4</ele>
      </trkpt>
      <trkpt lat="45.595895" lon="13.78908">
        <ele>4</ele>
      </trkpt>
      <trkpt lat="45.596552" lon="13.787615">
        <ele>3.99</ele>
      </trkpt>
      <trkpt lat="45.597" lon="13.786625">
        <ele>2.01</ele>
      </trkpt>
      <trkpt lat="45.59705" lon="13.786586">
        <ele>2.07</ele>
      </trkpt>
      <trkpt lat="45.59705" lon="13.786586">
        <ele>2.06</ele>
      </trkpt>
      <trkpt lat="45.5972" lon="13.786469">
        <ele>2.22</ele>
      </trkpt>
      <trkpt lat="45.597306" lon="13.7864">
        <ele>2.08</ele>
      </trkpt>
      <trkpt lat="45.597337" lon="13.786405">
        <ele>2.33</ele>
      </trkpt>
      <trkpt lat="45.597337" lon="13.786405">
        <ele>2.33</ele>
      </trkpt>
      <trkpt lat="45.597373" lon="13.786427">
        <ele>2.8</ele>
      </trkpt>
      <trkpt lat="45.597583" lon="13.786677">
        <ele>3.74</ele>
      </trkpt>
      <trkpt lat="45.597629" lon="13.78669">
        <ele>3.49</ele>
      </trkpt>
      <trkpt lat="45.597671" lon="13.786684">
        <ele>3.31</ele>
      </trkpt>
      <trkpt lat="45.597698" lon="13.786656">
        <ele>3.21</ele>
      </trkpt>
      <trkpt lat="45.597698" lon="13.786656">
        <ele>3.21</ele>
      </trkpt>
      <trkpt lat="45.597773" lon="13.786579">
        <ele>2.93</ele>
      </trkpt>
      <trkpt lat="45.597873" lon="13.786438">
        <ele>2</ele>
      </trkpt>
      <trkpt lat="45.597942" lon="13.786417">
        <ele>2</ele>
      </trkpt>
      <trkpt lat="45.598016" lon="13.78647">
        <ele>2.45</ele>
      </trkpt>
      <trkpt lat="45.598039" lon="13.78651">
        <ele>2.72</ele>
      </trkpt>
      <trkpt lat="45.598083" lon="13.786485">
        <ele>2.93</ele>
      </trkpt>
      <trkpt lat="45.598058" lon="13.786392">
        <ele>2.51</ele>
      </trkpt>
      <trkpt lat="45.598058" lon="13.786392">
        <ele>2.51</ele>
      </trkpt>
      <trkpt lat="45.598015" lon="13.786233">
        <ele>1.94</ele>
      </trkpt>
      <trkpt lat="45.598015" lon="13.786233">
        <ele>1.94</ele>
      </trkpt>
      <trkpt lat="45.597806" lon="13.785487">
        <ele>2</ele>
      </trkpt>
      <trkpt lat="45.597811" lon="13.785371">
        <ele>2.06</ele>
      </trkpt>
      <trkpt lat="45.597811" lon="13.785371">
        <ele>2.06</ele>
      </trkpt>
      <trkpt lat="45.597822" lon="13.785274">
        <ele>2.21</ele>
      </trkpt>
      <trkpt lat="45.597901" lon="13.785295">
        <ele>2</ele>
      </trkpt>
      <trkpt lat="45.597939" lon="13.785215">
        <ele>2.04</ele>
      </trkpt>
      <trkpt lat="45.597974" lon="13.785069">
        <ele>2.05</ele>
      </trkpt>
      <trkpt lat="45.597974" lon="13.785069">
        <ele>2.05</ele>
      </trkpt>
      <trkpt lat="45.597976" lon="13.784912">
        <ele>2.89</ele>
      </trkpt>
      <trkpt lat="45.597951" lon="13.7848">
        <ele>3</ele>
      </trkpt>
      <trkpt lat="45.59791" lon="13.784741">
        <ele>3</ele>
      </trkpt>
      <trkpt lat="45.597861" lon="13.784671">
        <ele>3</ele>
      </trkpt>
      <trkpt lat="45.597779" lon="13.784512">
        <ele>3</ele>
      </trkpt>
      <trkpt lat="45.597782" lon="13.78451">
        <ele>8.2</ele>
      </trkpt>
      <trkpt lat="45.597779" lon="13.784512">
        <ele>3</ele>
      </trkpt>
      <trkpt lat="45.597749" lon="13.784406">
        <ele>3</ele>
      </trkpt>
      <trkpt lat="45.597733" lon="13.784175">
        <ele>3</ele>
      </trkpt>
      <trkpt lat="45.597733" lon="13.784175">
        <ele>3</ele>
      </trkpt>
      <trkpt lat="45.597735" lon="13.783989">
        <ele>3</ele>
      </trkpt>
      <trkpt lat="45.597756" lon="13.783742">
        <ele>2.86</ele>
      </trkpt>
      <trkpt lat="45.597807" lon="13.783492">
        <ele>2.47</ele>
      </trkpt>
      <trkpt lat="45.597807" lon="13.783492">
        <ele>2.47</ele>
      </trkpt>
      <trkpt lat="45.597893" lon="13.783213">
        <ele>2.53</ele>
      </trkpt>
      <trkpt lat="45.597996" lon="13.782706">
        <ele>3.6</ele>
      </trkpt>
      <trkpt lat="45.59808" lon="13.782464">
        <ele>3.12</ele>
      </trkpt>
      <trkpt lat="45.598122" lon="13.782375">
        <ele>2.85</ele>
      </trkpt>
      <trkpt lat="45.598205" lon="13.78224">
        <ele>2.09</ele>
      </trkpt>
      <trkpt lat="45.598205" lon="13.78224">
        <ele>2.09</ele>
      </trkpt>
      <trkpt lat="45.598393" lon="13.781939">
        <ele>2</ele>
      </trkpt>
      <trkpt lat="45.599292" lon="13.780624">
        <ele>2.1</ele>
      </trkpt>
      <trkpt lat="45.599292" lon="13.780624">
        <ele>2.1</ele>
      </trkpt>
      <trkpt lat="45.599335" lon="13.780535">
        <ele>2.05</ele>
      </trkpt>
      <trkpt lat="45.599355" lon="13.780419">
        <ele>2.53</ele>
      </trkpt>
      <trkpt lat="45.599292" lon="13.78013">
        <ele>3.7</ele>
      </trkpt>
      <trkpt lat="45.599292" lon="13.78013">
        <ele>3.7</ele>
      </trkpt>
      <trkpt lat="45.599215" lon="13.77986">
        <ele>4.97</ele>
      </trkpt>
      <trkpt lat="45.599217" lon="13.779668">
        <ele>6.21</ele>
      </trkpt>
      <trkpt lat="45.599212" lon="13.779693">
        <ele>6.14</ele>
      </trkpt>
      <trkpt lat="45.599212" lon="13.779693">
        <ele>6.14</ele>
      </trkpt>
      <trkpt lat="45.599272" lon="13.779394">
        <ele>5.37</ele>
      </trkpt>
      <trkpt lat="45.599272" lon="13.779394">
        <ele>5.37</ele>
      </trkpt>
      <trkpt lat="45.599353" lon="13.779029">
        <ele>4.26</ele>
      </trkpt>
      <trkpt lat="45.599407" lon="13.778839">
        <ele>4.5</ele>
      </trkpt>
      <trkpt lat="45.599471" lon="13.778666">
        <ele>4.69</ele>
      </trkpt>
      <trkpt lat="45.599543" lon="13.778495">
        <ele>4.16</ele>
      </trkpt>
      <trkpt lat="45.599639" lon="13.778327">
        <ele>3.49</ele>
      </trkpt>
      <trkpt lat="45.599856" lon="13.778013">
        <ele>3.02</ele>
      </trkpt>
      <trkpt lat="45.600174" lon="13.777598">
        <ele>3.15</ele>
      </trkpt>
      <trkpt lat="45.60081" lon="13.776788">
        <ele>5.26</ele>
      </trkpt>
      <trkpt lat="45.600955" lon="13.776644">
        <ele>5.98</ele>
      </trkpt>
      <trkpt lat="45.601419" lon="13.776281">
        <ele>7.52</ele>
      </trkpt>
      <trkpt lat="45.602546" lon="13.775439">
        <ele>10.98</ele>
      </trkpt>
      <trkpt lat="45.602726" lon="13.775282">
        <ele>7.9</ele>
      </trkpt>
      <trkpt lat="45.60288" lon="13.775118">
        <ele>5.61</ele>
      </trkpt>
      <trkpt lat="45.603617" lon="13.774192">
        <ele>4.42</ele>
      </trkpt>
      <trkpt lat="45.603723" lon="13.774039">
        <ele>3.45</ele>
      </trkpt>
      <trkpt lat="45.603807" lon="13.773882">
        <ele>2.52</ele>
      </trkpt>
      <trkpt lat="45.603899" lon="13.773651">
        <ele>1.93</ele>
      </trkpt>
      <trkpt lat="45.603899" lon="13.773651">
        <ele>1.93</ele>
      </trkpt>
      <trkpt lat="45.603939" lon="13.773519">
        <ele>2.06</ele>
      </trkpt>
      <trkpt lat="45.603967" lon="13.773343">
        <ele>2.2</ele>
      </trkpt>
      <trkpt lat="45.604004" lon="13.772926">
        <ele>2.89</ele>
      </trkpt>
      <trkpt lat="45.60396" lon="13.770303">
        <ele>1</ele>
      </trkpt>
      <trkpt lat="45.603941" lon="13.769737">
        <ele>1</ele>
      </trkpt>
      <trkpt lat="45.603934" lon="13.769262">
        <ele>1.43</ele>
      </trkpt>
      <trkpt lat="45.603927" lon="13.769262">
        <ele>4</ele>
      </trkpt>
      <trkpt lat="45.603935" lon="13.76922">
        <ele>4</ele>
      </trkpt>
      <trkpt lat="45.603942" lon="13.76918">
        <ele>4</ele>
      </trkpt>
      <trkpt lat="45.603957" lon="13.769137">
        <ele>4.2</ele>
      </trkpt>
      <trkpt lat="45.603973" lon="13.769092">
        <ele>4.2</ele>
      </trkpt>
      <trkpt lat="45.603987" lon="13.769057">
        <ele>4.2</ele>
      </trkpt>
      <trkpt lat="45.604" lon="13.769027">
        <ele>4.4</ele>
      </trkpt>
      <trkpt lat="45.604017" lon="13.768997">
        <ele>4.4</ele>
      </trkpt>
      <trkpt lat="45.604037" lon="13.768967">
        <ele>4.4</ele>
      </trkpt>
      <trkpt lat="45.604065" lon="13.768937">
        <ele>4.4</ele>
      </trkpt>
      <trkpt lat="45.604095" lon="13.768912">
        <ele>4.4</ele>
      </trkpt>
      <trkpt lat="45.604128" lon="13.768897">
        <ele>4.4</ele>
      </trkpt>
      <trkpt lat="45.60416" lon="13.768885">
        <ele>4.6</ele>
      </trkpt>
      <trkpt lat="45.604192" lon="13.768845">
        <ele>4.6</ele>
      </trkpt>
      <trkpt lat="45.604222" lon="13.768832">
        <ele>4.4</ele>
      </trkpt>
      <trkpt lat="45.604252" lon="13.76882">
        <ele>4.4</ele>
      </trkpt>
      <trkpt lat="45.604287" lon="13.768812">
        <ele>4.6</ele>
      </trkpt>
      <trkpt lat="45.604312" lon="13.768802">
        <ele>4.6</ele>
      </trkpt>
      <trkpt lat="45.604345" lon="13.768792">
        <ele>4.6</ele>
      </trkpt>
      <trkpt lat="45.604377" lon="13.768777">
        <ele>4.6</ele>
      </trkpt>
      <trkpt lat="45.604402" lon="13.768767">
        <ele>4.6</ele>
      </trkpt>
      <trkpt lat="45.604427" lon="13.768757">
        <ele>4.8</ele>
      </trkpt>
      <trkpt lat="45.604452" lon="13.768742">
        <ele>4.8</ele>
      </trkpt>
      <trkpt lat="45.60448" lon="13.76872">
        <ele>4.8</ele>
      </trkpt>
      <trkpt lat="45.604507" lon="13.76869">
        <ele>4.8</ele>
      </trkpt>
      <trkpt lat="45.604532" lon="13.768655">
        <ele>4.6</ele>
      </trkpt>
      <trkpt lat="45.604555" lon="13.768612">
        <ele>4.6</ele>
      </trkpt>
      <trkpt lat="45.604575" lon="13.768567">
        <ele>4.6</ele>
      </trkpt>
      <trkpt lat="45.604592" lon="13.76852">
        <ele>4.6</ele>
      </trkpt>
      <trkpt lat="45.60461" lon="13.76847">
        <ele>4.6</ele>
      </trkpt>
      <trkpt lat="45.604627" lon="13.768422">
        <ele>4.6</ele>
      </trkpt>
      <trkpt lat="45.604647" lon="13.768372">
        <ele>4.6</ele>
      </trkpt>
      <trkpt lat="45.604663" lon="13.768317">
        <ele>4.6</ele>
      </trkpt>
      <trkpt lat="45.604672" lon="13.768262">
        <ele>4.8</ele>
      </trkpt>
      <trkpt lat="45.604677" lon="13.768205">
        <ele>5</ele>
      </trkpt>
      <trkpt lat="45.604685" lon="13.768152">
        <ele>5</ele>
      </trkpt>
      <trkpt lat="45.604685" lon="13.768102">
        <ele>5</ele>
      </trkpt>
      <trkpt lat="45.604687" lon="13.767997">
        <ele>5</ele>
      </trkpt>
      <trkpt lat="45.60469" lon="13.767947">
        <ele>5</ele>
      </trkpt>
      <trkpt lat="45.604692" lon="13.767892">
        <ele>5</ele>
      </trkpt>
      <trkpt lat="45.604697" lon="13.767842">
        <ele>5</ele>
      </trkpt>
      <trkpt lat="45.6047" lon="13.767792">
        <ele>4.8</ele>
      </trkpt>
      <trkpt lat="45.604702" lon="13.767742">
        <ele>4.8</ele>
      </trkpt>
      <trkpt lat="45.604707" lon="13.767692">
        <ele>4.6</ele>
      </trkpt>
      <trkpt lat="45.60471" lon="13.767642">
        <ele>4.6</ele>
      </trkpt>
      <trkpt lat="45.604712" lon="13.767592">
        <ele>4.6</ele>
      </trkpt>
      <trkpt lat="45.604717" lon="13.767545">
        <ele>4.8</ele>
      </trkpt>
      <trkpt lat="45.604722" lon="13.767497">
        <ele>4.8</ele>
      </trkpt>
      <trkpt lat="45.60473" lon="13.767452">
        <ele>4.8</ele>
      </trkpt>
      <trkpt lat="45.604745" lon="13.767407">
        <ele>4.8</ele>
      </trkpt>
      <trkpt lat="45.604767" lon="13.767367">
        <ele>4.6</ele>
      </trkpt>
      <trkpt lat="45.60479" lon="13.767332">
        <ele>4.6</ele>
      </trkpt>
      <trkpt lat="45.604817" lon="13.767305">
        <ele>4.6</ele>
      </trkpt>
      <trkpt lat="45.604847" lon="13.767285">
        <ele>4.6</ele>
      </trkpt>
      <trkpt lat="45.60488" lon="13.767272">
        <ele>4.6</ele>
      </trkpt>
      <trkpt lat="45.60491" lon="13.767262">
        <ele>4.6</ele>
      </trkpt>
      <trkpt lat="45.604937" lon="13.767257">
        <ele>4.6</ele>
      </trkpt>
      <trkpt lat="45.604967" lon="13.767247">
        <ele>4.8</ele>
      </trkpt>
      <trkpt lat="45.604997" lon="13.767242">
        <ele>4.8</ele>
      </trkpt>
      <trkpt lat="45.605027" lon="13.767242">
        <ele>4.8</ele>
      </trkpt>
      <trkpt lat="45.605077" lon="13.767257">
        <ele>5</ele>
      </trkpt>
      <trkpt lat="45.605102" lon="13.767267">
        <ele>5.2</ele>
      </trkpt>
      <trkpt lat="45.605122" lon="13.767275">
        <ele>5</ele>
      </trkpt>
      <trkpt lat="45.605147" lon="13.767275">
        <ele>5</ele>
      </trkpt>
      <trkpt lat="45.605167" lon="13.767272">
        <ele>5</ele>
      </trkpt>
      <trkpt lat="45.605185" lon="13.76726">
        <ele>5</ele>
      </trkpt>
      <trkpt lat="45.605222" lon="13.767237">
        <ele>5</ele>
      </trkpt>
      <trkpt lat="45.605237" lon="13.767227">
        <ele>5.2</ele>
      </trkpt>
      <trkpt lat="45.605247" lon="13.767222">
        <ele>5</ele>
      </trkpt>
    </trkseg>
  </trk>
</gpx>
