<?xml version="1.0" encoding="UTF-8"?>
<gpx creator="Garmin Connect" version="1.1" schemaLocation="http://www.topografix.com/GPX/1/1 http://www.topografix.com/GPX/11.xsd" xmlns="http://www.topografix.com/GPX/1/1" xmlns:xsi="http://www.w3.org/2001/XMLSchema-instance" xsi:schemaLocation="http://www.topografix.com/GPX/1/1 http://www.topografix.com/GPX/1/1/gpx.xsd http://www.garmin.com/xmlschemas/GpxExtensions/v3 http://www.garmin.com/xmlschemas/GpxExtensionsv3.xsd http://www.garmin.com/xmlschemas/TrackPointExtension/v1 http://www.garmin.com/xmlschemas/TrackPointExtensionv1.xsd http://www.garmin.com/xmlschemas/PowerExtension/v1 http://www.garmin.com/xmlschemas/PowerExtensionv1.xsd http://www.topografix.com/GPX/gpx_style/0/2 http://www.topografix.com/GPX/gpx_style/0/2/gpx_style.xsd" xmlns:gpxtpx="http://www.garmin.com/xmlschemas/TrackPointExtension/v1" xmlns:gpxx="http://www.garmin.com/xmlschemas/GpxExtensions/v3" xmlns:gpxpx="http://www.garmin.com/xmlschemas/PowerExtension/v1" xmlns:gpx_style="http://www.topografix.com/GPX/gpx_style/0/2">
  <metadata>
    <name>kr_gora-mojstrana:0:IAImUkgimDo</name>
    <author>
      <name>gpx.studio</name>
      <link href="https://gpx.studio"/>
    </author>
    <link href="connect.garmin.com">
      <text>Garmin Connect</text>
    </link>
  </metadata>
  <trk>
    <name>kr_gora-mojstrana:0:IAImUkgimDo</name>
    <type>road_biking</type>
    <trkseg>
      <trkpt lat="46.484367" lon="13.783525">
        <ele>810.47</ele>
      </trkpt>
      <trkpt lat="46.484366" lon="13.783526">
        <ele>810.47</ele>
      </trkpt>
      <trkpt lat="46.484381" lon="13.783601">
        <ele>810.64</ele>
      </trkpt>
      <trkpt lat="46.484374" lon="13.783744">
        <ele>811</ele>
      </trkpt>
      <trkpt lat="46.484286" lon="13.78409">
        <ele>810.97</ele>
      </trkpt>
      <trkpt lat="46.484286" lon="13.78409">
        <ele>810.97</ele>
      </trkpt>
      <trkpt lat="46.484286" lon="13.78409">
        <ele>810.97</ele>
      </trkpt>
      <trkpt lat="46.4842" lon="13.784452">
        <ele>811</ele>
      </trkpt>
      <trkpt lat="46.4842" lon="13.784452">
        <ele>811</ele>
      </trkpt>
      <trkpt lat="46.484186" lon="13.784657">
        <ele>811</ele>
      </trkpt>
      <trkpt lat="46.484202" lon="13.784811">
        <ele>811</ele>
      </trkpt>
      <trkpt lat="46.484376" lon="13.785209">
        <ele>810.73</ele>
      </trkpt>
      <trkpt lat="46.4843768812716" lon="13.78520811907947">
        <ele>817.2000122070312</ele>
      </trkpt>
      <trkpt lat="46.484376" lon="13.785209">
        <ele>810.73</ele>
      </trkpt>
      <trkpt lat="46.484401" lon="13.785264">
        <ele>810.71</ele>
      </trkpt>
      <trkpt lat="46.484421" lon="13.785335">
        <ele>810.37</ele>
      </trkpt>
      <trkpt lat="46.484421" lon="13.785335">
        <ele>810.38</ele>
      </trkpt>
      <trkpt lat="46.484502" lon="13.785661">
        <ele>809.42</ele>
      </trkpt>
      <trkpt lat="46.484516" lon="13.785687">
        <ele>809.61</ele>
      </trkpt>
      <trkpt lat="46.484516" lon="13.785687">
        <ele>809.61</ele>
      </trkpt>
      <trkpt lat="46.484548" lon="13.785743">
        <ele>810</ele>
      </trkpt>
      <trkpt lat="46.484696" lon="13.785991">
        <ele>809.76</ele>
      </trkpt>
      <trkpt lat="46.484953" lon="13.786492">
        <ele>807.72</ele>
      </trkpt>
      <trkpt lat="46.485154" lon="13.786923">
        <ele>807.22</ele>
      </trkpt>
      <trkpt lat="46.485248" lon="13.787145">
        <ele>806.92</ele>
      </trkpt>
      <trkpt lat="46.485579" lon="13.787796">
        <ele>805.82</ele>
      </trkpt>
      <trkpt lat="46.485657" lon="13.788155">
        <ele>805.05</ele>
      </trkpt>
      <trkpt lat="46.485792" lon="13.788648">
        <ele>803.19</ele>
      </trkpt>
      <trkpt lat="46.485856" lon="13.789043">
        <ele>801.02</ele>
      </trkpt>
      <trkpt lat="46.485919" lon="13.789543">
        <ele>799.98</ele>
      </trkpt>
      <trkpt lat="46.485943" lon="13.789665">
        <ele>799.28</ele>
      </trkpt>
      <trkpt lat="46.485954" lon="13.78982">
        <ele>799</ele>
      </trkpt>
      <trkpt lat="46.485881" lon="13.789947">
        <ele>799</ele>
      </trkpt>
      <trkpt lat="46.485791" lon="13.790127">
        <ele>799.24</ele>
      </trkpt>
      <trkpt lat="46.485509" lon="13.790526">
        <ele>796.03</ele>
      </trkpt>
      <trkpt lat="46.485377" lon="13.79072">
        <ele>795.71</ele>
      </trkpt>
      <trkpt lat="46.485253" lon="13.790886">
        <ele>799.57</ele>
      </trkpt>
      <trkpt lat="46.485153" lon="13.791022">
        <ele>799.88</ele>
      </trkpt>
      <trkpt lat="46.485058" lon="13.791183">
        <ele>800</ele>
      </trkpt>
      <trkpt lat="46.484977" lon="13.791423">
        <ele>800</ele>
      </trkpt>
      <trkpt lat="46.484937" lon="13.791616">
        <ele>799.93</ele>
      </trkpt>
      <trkpt lat="46.484912" lon="13.791831">
        <ele>799</ele>
      </trkpt>
      <trkpt lat="46.484893" lon="13.792175">
        <ele>799</ele>
      </trkpt>
      <trkpt lat="46.484868" lon="13.793213">
        <ele>797.14</ele>
      </trkpt>
      <trkpt lat="46.484883" lon="13.793743">
        <ele>796.6</ele>
      </trkpt>
      <trkpt lat="46.484918" lon="13.793944">
        <ele>796</ele>
      </trkpt>
      <trkpt lat="46.484969" lon="13.794093">
        <ele>796</ele>
      </trkpt>
      <trkpt lat="46.485255" lon="13.794787">
        <ele>794.94</ele>
      </trkpt>
      <trkpt lat="46.485506" lon="13.795468">
        <ele>794</ele>
      </trkpt>
      <trkpt lat="46.485502" lon="13.795631">
        <ele>793.59</ele>
      </trkpt>
      <trkpt lat="46.485428" lon="13.796036">
        <ele>793.11</ele>
      </trkpt>
      <trkpt lat="46.485376" lon="13.796465">
        <ele>792.92</ele>
      </trkpt>
      <trkpt lat="46.485369" lon="13.796694">
        <ele>792.97</ele>
      </trkpt>
      <trkpt lat="46.485383" lon="13.797097">
        <ele>792.86</ele>
      </trkpt>
      <trkpt lat="46.485449" lon="13.797559">
        <ele>791.62</ele>
      </trkpt>
      <trkpt lat="46.485589" lon="13.798229">
        <ele>790.76</ele>
      </trkpt>
      <trkpt lat="46.485752" lon="13.798904">
        <ele>788.11</ele>
      </trkpt>
      <trkpt lat="46.485959" lon="13.799728">
        <ele>788.23</ele>
      </trkpt>
      <trkpt lat="46.48604" lon="13.800044">
        <ele>789.72</ele>
      </trkpt>
      <trkpt lat="46.486203" lon="13.800676">
        <ele>788.72</ele>
      </trkpt>
      <trkpt lat="46.486241" lon="13.8008">
        <ele>788.16</ele>
      </trkpt>
      <trkpt lat="46.486274" lon="13.800857">
        <ele>787.54</ele>
      </trkpt>
      <trkpt lat="46.486316" lon="13.800881">
        <ele>787.06</ele>
      </trkpt>
      <trkpt lat="46.486416" lon="13.800892">
        <ele>787</ele>
      </trkpt>
      <trkpt lat="46.486433" lon="13.801028">
        <ele>787</ele>
      </trkpt>
      <trkpt lat="46.486454" lon="13.801387">
        <ele>785.82</ele>
      </trkpt>
      <trkpt lat="46.486429" lon="13.801866">
        <ele>784.95</ele>
      </trkpt>
      <trkpt lat="46.486485" lon="13.802448">
        <ele>784</ele>
      </trkpt>
      <trkpt lat="46.486536" lon="13.803167">
        <ele>784</ele>
      </trkpt>
      <trkpt lat="46.486546" lon="13.803528">
        <ele>784</ele>
      </trkpt>
      <trkpt lat="46.486535" lon="13.804079">
        <ele>783.41</ele>
      </trkpt>
      <trkpt lat="46.486515" lon="13.804356">
        <ele>783</ele>
      </trkpt>
      <trkpt lat="46.486423" lon="13.805146">
        <ele>783</ele>
      </trkpt>
      <trkpt lat="46.486382" lon="13.805452">
        <ele>782</ele>
      </trkpt>
      <trkpt lat="46.486155" lon="13.806953">
        <ele>781.95</ele>
      </trkpt>
      <trkpt lat="46.486065" lon="13.807697">
        <ele>781.21</ele>
      </trkpt>
      <trkpt lat="46.486049" lon="13.808078">
        <ele>780.54</ele>
      </trkpt>
      <trkpt lat="46.486048" lon="13.808464">
        <ele>780.5</ele>
      </trkpt>
      <trkpt lat="46.486085" lon="13.808835">
        <ele>779.99</ele>
      </trkpt>
      <trkpt lat="46.4861" lon="13.809105">
        <ele>779.81</ele>
      </trkpt>
      <trkpt lat="46.486268" lon="13.810374">
        <ele>777</ele>
      </trkpt>
      <trkpt lat="46.486407" lon="13.811512">
        <ele>776.16</ele>
      </trkpt>
      <trkpt lat="46.486461" lon="13.812011">
        <ele>774.84</ele>
      </trkpt>
      <trkpt lat="46.486498" lon="13.812714">
        <ele>774</ele>
      </trkpt>
      <trkpt lat="46.486503" lon="13.813121">
        <ele>773</ele>
      </trkpt>
      <trkpt lat="46.486499" lon="13.813433">
        <ele>772.62</ele>
      </trkpt>
      <trkpt lat="46.486499" lon="13.813433">
        <ele>772.62</ele>
      </trkpt>
      <trkpt lat="46.486499" lon="13.813433">
        <ele>772.62</ele>
      </trkpt>
      <trkpt lat="46.486498" lon="13.813536">
        <ele>772.49</ele>
      </trkpt>
      <trkpt lat="46.486426" lon="13.814388">
        <ele>771.94</ele>
      </trkpt>
      <trkpt lat="46.486426" lon="13.814388">
        <ele>771.94</ele>
      </trkpt>
      <trkpt lat="46.486426" lon="13.814388">
        <ele>771.94</ele>
      </trkpt>
      <trkpt lat="46.48642" lon="13.814465">
        <ele>771.89</ele>
      </trkpt>
      <trkpt lat="46.486364" lon="13.814817">
        <ele>771</ele>
      </trkpt>
      <trkpt lat="46.486276" lon="13.815235">
        <ele>771</ele>
      </trkpt>
      <trkpt lat="46.486159" lon="13.815711">
        <ele>770.26</ele>
      </trkpt>
      <trkpt lat="46.486019" lon="13.816219">
        <ele>770</ele>
      </trkpt>
      <trkpt lat="46.484743" lon="13.820656">
        <ele>763.15</ele>
      </trkpt>
      <trkpt lat="46.484669" lon="13.820978">
        <ele>764.08</ele>
      </trkpt>
      <trkpt lat="46.484638" lon="13.821155">
        <ele>764.41</ele>
      </trkpt>
      <trkpt lat="46.484638" lon="13.821155">
        <ele>764.41</ele>
      </trkpt>
      <trkpt lat="46.484591" lon="13.82152">
        <ele>764.59</ele>
      </trkpt>
      <trkpt lat="46.484571" lon="13.821812">
        <ele>763.99</ele>
      </trkpt>
      <trkpt lat="46.484572" lon="13.822364">
        <ele>762.58</ele>
      </trkpt>
      <trkpt lat="46.484552" lon="13.822539">
        <ele>762.77</ele>
      </trkpt>
      <trkpt lat="46.484508" lon="13.822723">
        <ele>762.58</ele>
      </trkpt>
      <trkpt lat="46.484383" lon="13.823139">
        <ele>762.19</ele>
      </trkpt>
      <trkpt lat="46.484383" lon="13.823139">
        <ele>762.19</ele>
      </trkpt>
      <trkpt lat="46.484363" lon="13.823206">
        <ele>762.13</ele>
      </trkpt>
      <trkpt lat="46.484301" lon="13.823333">
        <ele>762.13</ele>
      </trkpt>
      <trkpt lat="46.484301" lon="13.823333">
        <ele>762.13</ele>
      </trkpt>
      <trkpt lat="46.484188" lon="13.823565">
        <ele>762.14</ele>
      </trkpt>
      <trkpt lat="46.483671" lon="13.824551">
        <ele>758.7</ele>
      </trkpt>
      <trkpt lat="46.483324" lon="13.825086">
        <ele>756.75</ele>
      </trkpt>
      <trkpt lat="46.483064" lon="13.825462">
        <ele>755.5</ele>
      </trkpt>
      <trkpt lat="46.482922" lon="13.825728">
        <ele>756.23</ele>
      </trkpt>
      <trkpt lat="46.482733" lon="13.826123">
        <ele>755.61</ele>
      </trkpt>
      <trkpt lat="46.482243" lon="13.827197">
        <ele>756.02</ele>
      </trkpt>
      <trkpt lat="46.482092" lon="13.827549">
        <ele>756.96</ele>
      </trkpt>
      <trkpt lat="46.481588" lon="13.828712">
        <ele>754.01</ele>
      </trkpt>
      <trkpt lat="46.481463" lon="13.829017">
        <ele>754.39</ele>
      </trkpt>
      <trkpt lat="46.481296" lon="13.829352">
        <ele>754.67</ele>
      </trkpt>
      <trkpt lat="46.481129" lon="13.829688">
        <ele>752.63</ele>
      </trkpt>
      <trkpt lat="46.480967" lon="13.830068">
        <ele>752.63</ele>
      </trkpt>
      <trkpt lat="46.480824" lon="13.830459">
        <ele>751.49</ele>
      </trkpt>
      <trkpt lat="46.480612" lon="13.831188">
        <ele>748.85</ele>
      </trkpt>
      <trkpt lat="46.48054" lon="13.831505">
        <ele>749.27</ele>
      </trkpt>
      <trkpt lat="46.48054467514157" lon="13.831506818532944">
        <ele>758.4000244140625</ele>
      </trkpt>
      <trkpt lat="46.48054" lon="13.831505">
        <ele>749.27</ele>
      </trkpt>
      <trkpt lat="46.480494" lon="13.831712">
        <ele>749.55</ele>
      </trkpt>
      <trkpt lat="46.480436" lon="13.832063">
        <ele>748.43</ele>
      </trkpt>
      <trkpt lat="46.480387" lon="13.832537">
        <ele>748.61</ele>
      </trkpt>
      <trkpt lat="46.480359" lon="13.832809">
        <ele>748.72</ele>
      </trkpt>
      <trkpt lat="46.480355" lon="13.833111">
        <ele>748.37</ele>
      </trkpt>
      <trkpt lat="46.480348287150264" lon="13.833110528066754">
        <ele>757.2000122070312</ele>
      </trkpt>
      <trkpt lat="46.480355" lon="13.833111">
        <ele>748.37</ele>
      </trkpt>
      <trkpt lat="46.48035" lon="13.833437">
        <ele>748</ele>
      </trkpt>
      <trkpt lat="46.480366" lon="13.833776">
        <ele>748.13</ele>
      </trkpt>
      <trkpt lat="46.480366" lon="13.833776">
        <ele>748.14</ele>
      </trkpt>
      <trkpt lat="46.480412" lon="13.834388">
        <ele>748</ele>
      </trkpt>
      <trkpt lat="46.480473" lon="13.834798">
        <ele>747.32</ele>
      </trkpt>
      <trkpt lat="46.480491" lon="13.834883">
        <ele>747.26</ele>
      </trkpt>
      <trkpt lat="46.480491" lon="13.834883">
        <ele>747.26</ele>
      </trkpt>
      <trkpt lat="46.480568" lon="13.835235">
        <ele>747</ele>
      </trkpt>
      <trkpt lat="46.48065" lon="13.835563">
        <ele>746.83</ele>
      </trkpt>
      <trkpt lat="46.48072" lon="13.835804">
        <ele>746.24</ele>
      </trkpt>
      <trkpt lat="46.480842" lon="13.836164">
        <ele>746</ele>
      </trkpt>
      <trkpt lat="46.480923" lon="13.836366">
        <ele>745.72</ele>
      </trkpt>
      <trkpt lat="46.480923" lon="13.836366">
        <ele>745.72</ele>
      </trkpt>
      <trkpt lat="46.481133" lon="13.83689">
        <ele>745</ele>
      </trkpt>
      <trkpt lat="46.481296" lon="13.837185">
        <ele>744</ele>
      </trkpt>
      <trkpt lat="46.481489" lon="13.837511">
        <ele>743.74</ele>
      </trkpt>
      <trkpt lat="46.481713" lon="13.837802">
        <ele>742.85</ele>
      </trkpt>
      <trkpt lat="46.481909" lon="13.838001">
        <ele>742.75</ele>
      </trkpt>
      <trkpt lat="46.481978" lon="13.838122">
        <ele>742.4</ele>
      </trkpt>
      <trkpt lat="46.482018" lon="13.838256">
        <ele>742.27</ele>
      </trkpt>
      <trkpt lat="46.482019" lon="13.838457">
        <ele>742.05</ele>
      </trkpt>
      <trkpt lat="46.482036" lon="13.838564">
        <ele>741.85</ele>
      </trkpt>
      <trkpt lat="46.482329" lon="13.839163">
        <ele>741.38</ele>
      </trkpt>
      <trkpt lat="46.482476" lon="13.839441">
        <ele>741.16</ele>
      </trkpt>
      <trkpt lat="46.482661" lon="13.839782">
        <ele>740.2</ele>
      </trkpt>
      <trkpt lat="46.482708" lon="13.839815">
        <ele>740.34</ele>
      </trkpt>
      <trkpt lat="46.4828" lon="13.840058">
        <ele>739.53</ele>
      </trkpt>
      <trkpt lat="46.482947" lon="13.840496">
        <ele>738.92</ele>
      </trkpt>
      <trkpt lat="46.482947" lon="13.840496">
        <ele>738.92</ele>
      </trkpt>
      <trkpt lat="46.482947" lon="13.840496">
        <ele>738.92</ele>
      </trkpt>
      <trkpt lat="46.482986" lon="13.840638">
        <ele>738.85</ele>
      </trkpt>
      <trkpt lat="46.482986" lon="13.840638">
        <ele>738.85</ele>
      </trkpt>
      <trkpt lat="46.483043" lon="13.840848">
        <ele>738.73</ele>
      </trkpt>
      <trkpt lat="46.483137" lon="13.84135">
        <ele>739.55</ele>
      </trkpt>
      <trkpt lat="46.483171" lon="13.8416">
        <ele>738.99</ele>
      </trkpt>
      <trkpt lat="46.483196" lon="13.841906">
        <ele>739.36</ele>
      </trkpt>
      <trkpt lat="46.483196" lon="13.841906">
        <ele>739.36</ele>
      </trkpt>
      <trkpt lat="46.483207" lon="13.842045">
        <ele>739.52</ele>
      </trkpt>
      <trkpt lat="46.483208" lon="13.842547">
        <ele>739.77</ele>
      </trkpt>
      <trkpt lat="46.483183" lon="13.842885">
        <ele>739.56</ele>
      </trkpt>
      <trkpt lat="46.483183" lon="13.842885">
        <ele>739.56</ele>
      </trkpt>
      <trkpt lat="46.483178" lon="13.842956">
        <ele>739.51</ele>
      </trkpt>
      <trkpt lat="46.48315" lon="13.843111">
        <ele>739.32</ele>
      </trkpt>
      <trkpt lat="46.48315" lon="13.843111">
        <ele>739.32</ele>
      </trkpt>
      <trkpt lat="46.483104" lon="13.84337">
        <ele>739</ele>
      </trkpt>
      <trkpt lat="46.482982" lon="13.843845">
        <ele>739</ele>
      </trkpt>
      <trkpt lat="46.482883" lon="13.844132">
        <ele>739.03</ele>
      </trkpt>
      <trkpt lat="46.482783" lon="13.844367">
        <ele>738.49</ele>
      </trkpt>
      <trkpt lat="46.482783" lon="13.844367">
        <ele>738.49</ele>
      </trkpt>
      <trkpt lat="46.482457" lon="13.845032">
        <ele>737.91</ele>
      </trkpt>
      <trkpt lat="46.4822" lon="13.84548">
        <ele>736.89</ele>
      </trkpt>
      <trkpt lat="46.481696" lon="13.846465">
        <ele>735.02</ele>
      </trkpt>
      <trkpt lat="46.481446" lon="13.846961">
        <ele>733.99</ele>
      </trkpt>
      <trkpt lat="46.4814359229058" lon="13.8469507265836">
        <ele>742</ele>
      </trkpt>
      <trkpt lat="46.481446" lon="13.846961">
        <ele>733.99</ele>
      </trkpt>
      <trkpt lat="46.481345" lon="13.847184">
        <ele>734.04</ele>
      </trkpt>
      <trkpt lat="46.481261" lon="13.847423">
        <ele>734.03</ele>
      </trkpt>
      <trkpt lat="46.481261" lon="13.847423">
        <ele>734.03</ele>
      </trkpt>
      <trkpt lat="46.481059" lon="13.847994">
        <ele>734</ele>
      </trkpt>
      <trkpt lat="46.480909" lon="13.848545">
        <ele>732.98</ele>
      </trkpt>
      <trkpt lat="46.480746" lon="13.849373">
        <ele>731.08</ele>
      </trkpt>
      <trkpt lat="46.480746" lon="13.849373">
        <ele>731.08</ele>
      </trkpt>
      <trkpt lat="46.48068" lon="13.849891">
        <ele>731.49</ele>
      </trkpt>
      <trkpt lat="46.480621" lon="13.850841">
        <ele>729.59</ele>
      </trkpt>
      <trkpt lat="46.480579" lon="13.852277">
        <ele>727.14</ele>
      </trkpt>
      <trkpt lat="46.480515" lon="13.854218">
        <ele>725.93</ele>
      </trkpt>
      <trkpt lat="46.480471" lon="13.85534">
        <ele>724.15</ele>
      </trkpt>
      <trkpt lat="46.480347" lon="13.859193">
        <ele>720</ele>
      </trkpt>
      <trkpt lat="46.480297" lon="13.860532">
        <ele>718.96</ele>
      </trkpt>
      <trkpt lat="46.480288" lon="13.860899">
        <ele>718.89</ele>
      </trkpt>
      <trkpt lat="46.480142" lon="13.861951">
        <ele>718</ele>
      </trkpt>
      <trkpt lat="46.480004" lon="13.862341">
        <ele>716</ele>
      </trkpt>
      <trkpt lat="46.47998" lon="13.862481">
        <ele>716</ele>
      </trkpt>
      <trkpt lat="46.47998" lon="13.862615">
        <ele>715.77</ele>
      </trkpt>
      <trkpt lat="46.479984847828746" lon="13.862614743411541">
        <ele>723.5999755859375</ele>
      </trkpt>
      <trkpt lat="46.47998" lon="13.862615">
        <ele>715.77</ele>
      </trkpt>
      <trkpt lat="46.479978" lon="13.863321">
        <ele>714.53</ele>
      </trkpt>
      <trkpt lat="46.479962" lon="13.863884">
        <ele>713.09</ele>
      </trkpt>
      <trkpt lat="46.479963" lon="13.864432">
        <ele>712.74</ele>
      </trkpt>
      <trkpt lat="46.48" lon="13.865511">
        <ele>711.91</ele>
      </trkpt>
      <trkpt lat="46.48" lon="13.865511">
        <ele>711.91</ele>
      </trkpt>
      <trkpt lat="46.480014" lon="13.865805">
        <ele>711.68</ele>
      </trkpt>
      <trkpt lat="46.480008" lon="13.86614">
        <ele>711.75</ele>
      </trkpt>
      <trkpt lat="46.479984" lon="13.866558">
        <ele>711.55</ele>
      </trkpt>
      <trkpt lat="46.479911" lon="13.867263">
        <ele>709.94</ele>
      </trkpt>
      <trkpt lat="46.479781" lon="13.868212">
        <ele>709.76</ele>
      </trkpt>
      <trkpt lat="46.479714" lon="13.868651">
        <ele>708.8</ele>
      </trkpt>
      <trkpt lat="46.479679" lon="13.869019">
        <ele>709.03</ele>
      </trkpt>
      <trkpt lat="46.479641" lon="13.869154">
        <ele>708.88</ele>
      </trkpt>
      <trkpt lat="46.479599" lon="13.869258">
        <ele>708.71</ele>
      </trkpt>
      <trkpt lat="46.479556" lon="13.869404">
        <ele>709.21</ele>
      </trkpt>
      <trkpt lat="46.479489" lon="13.869835">
        <ele>709.9</ele>
      </trkpt>
      <trkpt lat="46.479464" lon="13.869932">
        <ele>710</ele>
      </trkpt>
      <trkpt lat="46.479434" lon="13.870007">
        <ele>709.66</ele>
      </trkpt>
      <trkpt lat="46.479434" lon="13.870007">
        <ele>709.66</ele>
      </trkpt>
      <trkpt lat="46.479404" lon="13.870086">
        <ele>709.3</ele>
      </trkpt>
      <trkpt lat="46.479099" lon="13.870778">
        <ele>710.11</ele>
      </trkpt>
      <trkpt lat="46.479001" lon="13.870954">
        <ele>710</ele>
      </trkpt>
      <trkpt lat="46.478646" lon="13.871744">
        <ele>709.19</ele>
      </trkpt>
      <trkpt lat="46.478646" lon="13.871744">
        <ele>709.19</ele>
      </trkpt>
      <trkpt lat="46.478274" lon="13.872602">
        <ele>708.03</ele>
      </trkpt>
      <trkpt lat="46.477847" lon="13.873553">
        <ele>709.11</ele>
      </trkpt>
      <trkpt lat="46.477705" lon="13.87387">
        <ele>706.7</ele>
      </trkpt>
      <trkpt lat="46.47717" lon="13.875032">
        <ele>705.01</ele>
      </trkpt>
      <trkpt lat="46.476924" lon="13.875658">
        <ele>705</ele>
      </trkpt>
      <trkpt lat="46.476806" lon="13.876066">
        <ele>704.95</ele>
      </trkpt>
      <trkpt lat="46.476697" lon="13.876647">
        <ele>703.91</ele>
      </trkpt>
      <trkpt lat="46.476643" lon="13.877106">
        <ele>703.51</ele>
      </trkpt>
      <trkpt lat="46.476608" lon="13.877498">
        <ele>702.95</ele>
      </trkpt>
      <trkpt lat="46.476598" lon="13.877839">
        <ele>703</ele>
      </trkpt>
      <trkpt lat="46.476601" lon="13.878036">
        <ele>702.99</ele>
      </trkpt>
      <trkpt lat="46.476622" lon="13.878305">
        <ele>701.85</ele>
      </trkpt>
      <trkpt lat="46.476684" lon="13.878952">
        <ele>704.3</ele>
      </trkpt>
      <trkpt lat="46.476759" lon="13.879749">
        <ele>701.06</ele>
      </trkpt>
      <trkpt lat="46.476781" lon="13.880068">
        <ele>699.51</ele>
      </trkpt>
      <trkpt lat="46.476792" lon="13.880424">
        <ele>698.84</ele>
      </trkpt>
      <trkpt lat="46.476784" lon="13.880949">
        <ele>698.29</ele>
      </trkpt>
      <trkpt lat="46.476747" lon="13.881423">
        <ele>698</ele>
      </trkpt>
      <trkpt lat="46.476707" lon="13.881751">
        <ele>698.65</ele>
      </trkpt>
      <trkpt lat="46.47671381011605" lon="13.881752388551831">
        <ele>707.5999755859375</ele>
      </trkpt>
      <trkpt lat="46.476707" lon="13.881751">
        <ele>698.65</ele>
      </trkpt>
      <trkpt lat="46.476691" lon="13.881874">
        <ele>697.92</ele>
      </trkpt>
      <trkpt lat="46.476522" lon="13.882711">
        <ele>696.57</ele>
      </trkpt>
      <trkpt lat="46.476291" lon="13.883676">
        <ele>695.26</ele>
      </trkpt>
      <trkpt lat="46.476084" lon="13.884619">
        <ele>694.86</ele>
      </trkpt>
      <trkpt lat="46.476084" lon="13.884619">
        <ele>694.86</ele>
      </trkpt>
      <trkpt lat="46.475811" lon="13.885843">
        <ele>693.03</ele>
      </trkpt>
      <trkpt lat="46.475755" lon="13.886048">
        <ele>693.61</ele>
      </trkpt>
      <trkpt lat="46.475636" lon="13.886429">
        <ele>693.16</ele>
      </trkpt>
      <trkpt lat="46.475024" lon="13.888109">
        <ele>691</ele>
      </trkpt>
      <trkpt lat="46.47491" lon="13.888523">
        <ele>690.71</ele>
      </trkpt>
      <trkpt lat="46.47484" lon="13.888889">
        <ele>690.88</ele>
      </trkpt>
      <trkpt lat="46.474776" lon="13.889459">
        <ele>690.12</ele>
      </trkpt>
      <trkpt lat="46.474766" lon="13.889842">
        <ele>689.98</ele>
      </trkpt>
      <trkpt lat="46.474766" lon="13.889842">
        <ele>689.98</ele>
      </trkpt>
      <trkpt lat="46.474826" lon="13.890466">
        <ele>690</ele>
      </trkpt>
      <trkpt lat="46.47496" lon="13.891024">
        <ele>689.66</ele>
      </trkpt>
      <trkpt lat="46.475151" lon="13.891646">
        <ele>689.19</ele>
      </trkpt>
      <trkpt lat="46.475199" lon="13.891861">
        <ele>689.93</ele>
      </trkpt>
      <trkpt lat="46.475189" lon="13.892001">
        <ele>689.31</ele>
      </trkpt>
      <trkpt lat="46.475123" lon="13.892238">
        <ele>688</ele>
      </trkpt>
      <trkpt lat="46.475025" lon="13.892697">
        <ele>687.24</ele>
      </trkpt>
      <trkpt lat="46.474965" lon="13.893249">
        <ele>687</ele>
      </trkpt>
      <trkpt lat="46.474964" lon="13.893437">
        <ele>687</ele>
      </trkpt>
      <trkpt lat="46.474964" lon="13.893437">
        <ele>687</ele>
      </trkpt>
      <trkpt lat="46.474988" lon="13.893532">
        <ele>687</ele>
      </trkpt>
      <trkpt lat="46.475063" lon="13.893697">
        <ele>686.43</ele>
      </trkpt>
      <trkpt lat="46.475127" lon="13.893785">
        <ele>686.5</ele>
      </trkpt>
      <trkpt lat="46.475199" lon="13.893992">
        <ele>686</ele>
      </trkpt>
      <trkpt lat="46.475208" lon="13.894118">
        <ele>686</ele>
      </trkpt>
      <trkpt lat="46.475141" lon="13.894648">
        <ele>685.94</ele>
      </trkpt>
      <trkpt lat="46.475026" lon="13.895141">
        <ele>685.53</ele>
      </trkpt>
      <trkpt lat="46.475026" lon="13.895141">
        <ele>685.53</ele>
      </trkpt>
      <trkpt lat="46.474731" lon="13.896417">
        <ele>684.49</ele>
      </trkpt>
      <trkpt lat="46.474407" lon="13.897586">
        <ele>683</ele>
      </trkpt>
      <trkpt lat="46.474296" lon="13.898154">
        <ele>683</ele>
      </trkpt>
      <trkpt lat="46.474251" lon="13.898311">
        <ele>683.4</ele>
      </trkpt>
      <trkpt lat="46.47417" lon="13.898478">
        <ele>683.47</ele>
      </trkpt>
      <trkpt lat="46.47412" lon="13.898614">
        <ele>683.04</ele>
      </trkpt>
      <trkpt lat="46.474097" lon="13.898969">
        <ele>682.81</ele>
      </trkpt>
      <trkpt lat="46.473931" lon="13.899529">
        <ele>682.31</ele>
      </trkpt>
      <trkpt lat="46.473836" lon="13.899758">
        <ele>681.06</ele>
      </trkpt>
      <trkpt lat="46.473625" lon="13.900413">
        <ele>680.33</ele>
      </trkpt>
      <trkpt lat="46.473575" lon="13.90064">
        <ele>680.49</ele>
      </trkpt>
      <trkpt lat="46.473575" lon="13.90064">
        <ele>680.49</ele>
      </trkpt>
      <trkpt lat="46.473522" lon="13.900879">
        <ele>680.67</ele>
      </trkpt>
      <trkpt lat="46.473222" lon="13.902468">
        <ele>678.54</ele>
      </trkpt>
      <trkpt lat="46.473059" lon="13.903256">
        <ele>678.84</ele>
      </trkpt>
      <trkpt lat="46.472988" lon="13.903622">
        <ele>677.87</ele>
      </trkpt>
      <trkpt lat="46.472491" lon="13.90618">
        <ele>680</ele>
      </trkpt>
      <trkpt lat="46.472428" lon="13.906504">
        <ele>678.38</ele>
      </trkpt>
      <trkpt lat="46.472359" lon="13.906838">
        <ele>679.06</ele>
      </trkpt>
      <trkpt lat="46.472254" lon="13.907401">
        <ele>679.03</ele>
      </trkpt>
      <trkpt lat="46.472161" lon="13.907842">
        <ele>679</ele>
      </trkpt>
      <trkpt lat="46.472107" lon="13.908103">
        <ele>678.67</ele>
      </trkpt>
      <trkpt lat="46.472092" lon="13.908242">
        <ele>678.4</ele>
      </trkpt>
      <trkpt lat="46.472092" lon="13.908242">
        <ele>678.4</ele>
      </trkpt>
      <trkpt lat="46.472037" lon="13.908733">
        <ele>677.46</ele>
      </trkpt>
      <trkpt lat="46.471993" lon="13.909307">
        <ele>677</ele>
      </trkpt>
      <trkpt lat="46.471912" lon="13.910866">
        <ele>674.76</ele>
      </trkpt>
      <trkpt lat="46.471782" lon="13.91313">
        <ele>671.83</ele>
      </trkpt>
      <trkpt lat="46.471634" lon="13.913948">
        <ele>670.92</ele>
      </trkpt>
      <trkpt lat="46.471553" lon="13.914277">
        <ele>670.21</ele>
      </trkpt>
      <trkpt lat="46.471553" lon="13.914277">
        <ele>670.21</ele>
      </trkpt>
      <trkpt lat="46.470652" lon="13.917966">
        <ele>666.18</ele>
      </trkpt>
      <trkpt lat="46.470221" lon="13.91965">
        <ele>665.99</ele>
      </trkpt>
      <trkpt lat="46.470192" lon="13.919811">
        <ele>665.88</ele>
      </trkpt>
      <trkpt lat="46.470098" lon="13.920136">
        <ele>665.44</ele>
      </trkpt>
      <trkpt lat="46.469991" lon="13.920434">
        <ele>665.65</ele>
      </trkpt>
      <trkpt lat="46.469991" lon="13.920434">
        <ele>665.65</ele>
      </trkpt>
      <trkpt lat="46.469753" lon="13.920991">
        <ele>665.55</ele>
      </trkpt>
      <trkpt lat="46.469753" lon="13.920991">
        <ele>665.55</ele>
      </trkpt>
      <trkpt lat="46.469573" lon="13.921346">
        <ele>664.98</ele>
      </trkpt>
      <trkpt lat="46.469118" lon="13.922042">
        <ele>662.89</ele>
      </trkpt>
      <trkpt lat="46.468685" lon="13.922713">
        <ele>663.91</ele>
      </trkpt>
      <trkpt lat="46.46836" lon="13.923237">
        <ele>663.96</ele>
      </trkpt>
      <trkpt lat="46.468122" lon="13.923652">
        <ele>662.44</ele>
      </trkpt>
      <trkpt lat="46.468003" lon="13.923885">
        <ele>662.03</ele>
      </trkpt>
      <trkpt lat="46.467943" lon="13.924049">
        <ele>661.97</ele>
      </trkpt>
      <trkpt lat="46.467819" lon="13.924321">
        <ele>660.91</ele>
      </trkpt>
      <trkpt lat="46.467663" lon="13.92476">
        <ele>659.99</ele>
      </trkpt>
      <trkpt lat="46.467663" lon="13.92476">
        <ele>659.99</ele>
      </trkpt>
      <trkpt lat="46.467474" lon="13.925343">
        <ele>659.93</ele>
      </trkpt>
      <trkpt lat="46.467436" lon="13.925502">
        <ele>659.32</ele>
      </trkpt>
      <trkpt lat="46.466946" lon="13.927805">
        <ele>657</ele>
      </trkpt>
      <trkpt lat="46.466634" lon="13.929309">
        <ele>656</ele>
      </trkpt>
      <trkpt lat="46.466213" lon="13.931255">
        <ele>654.08</ele>
      </trkpt>
      <trkpt lat="46.466213" lon="13.931255">
        <ele>654.08</ele>
      </trkpt>
      <trkpt lat="46.466205" lon="13.93129">
        <ele>654</ele>
      </trkpt>
      <trkpt lat="46.466165" lon="13.931333">
        <ele>654</ele>
      </trkpt>
      <trkpt lat="46.46613" lon="13.931353">
        <ele>654</ele>
      </trkpt>
      <trkpt lat="46.466064" lon="13.931364">
        <ele>654</ele>
      </trkpt>
      <trkpt lat="46.466032" lon="13.931351">
        <ele>653.98</ele>
      </trkpt>
      <trkpt lat="46.465658" lon="13.931196">
        <ele>653.75</ele>
      </trkpt>
      <trkpt lat="46.465617" lon="13.9312">
        <ele>653.89</ele>
      </trkpt>
      <trkpt lat="46.465619187802076" lon="13.931202264502645">
        <ele>658.5999755859375</ele>
      </trkpt>
      <trkpt lat="46.465617" lon="13.9312">
        <ele>653.89</ele>
      </trkpt>
      <trkpt lat="46.465589" lon="13.931242">
        <ele>654</ele>
      </trkpt>
      <trkpt lat="46.46557" lon="13.931381">
        <ele>653.86</ele>
      </trkpt>
      <trkpt lat="46.46557" lon="13.931381">
        <ele>653.86</ele>
      </trkpt>
      <trkpt lat="46.465424" lon="13.932452">
        <ele>653</ele>
      </trkpt>
      <trkpt lat="46.465408" lon="13.932709">
        <ele>653</ele>
      </trkpt>
      <trkpt lat="46.465408" lon="13.932709">
        <ele>653</ele>
      </trkpt>
      <trkpt lat="46.465418" lon="13.932897">
        <ele>652.8</ele>
      </trkpt>
      <trkpt lat="46.465482" lon="13.933173">
        <ele>652.93</ele>
      </trkpt>
      <trkpt lat="46.465563" lon="13.933463">
        <ele>652.81</ele>
      </trkpt>
      <trkpt lat="46.465595" lon="13.933613">
        <ele>653.08</ele>
      </trkpt>
      <trkpt lat="46.46559" lon="13.933734">
        <ele>653.37</ele>
      </trkpt>
      <trkpt lat="46.465569" lon="13.933893">
        <ele>653.86</ele>
      </trkpt>
      <trkpt lat="46.465569" lon="13.933893">
        <ele>653.86</ele>
      </trkpt>
      <trkpt lat="46.465451" lon="13.934545">
        <ele>653</ele>
      </trkpt>
      <trkpt lat="46.465347" lon="13.935199">
        <ele>652.97</ele>
      </trkpt>
      <trkpt lat="46.465137" lon="13.936332">
        <ele>653</ele>
      </trkpt>
      <trkpt lat="46.465128" lon="13.936379">
        <ele>653</ele>
      </trkpt>
      <trkpt lat="46.46512" lon="13.936538">
        <ele>653.78</ele>
      </trkpt>
      <trkpt lat="46.46509" lon="13.936557">
        <ele>653.62</ele>
      </trkpt>
      <trkpt lat="46.464914" lon="13.937432">
        <ele>654.48</ele>
      </trkpt>
      <trkpt lat="46.464517" lon="13.939522">
        <ele>650.92</ele>
      </trkpt>
      <trkpt lat="46.464455" lon="13.939791">
        <ele>650.67</ele>
      </trkpt>
      <trkpt lat="46.464358" lon="13.940145">
        <ele>650.14</ele>
      </trkpt>
      <trkpt lat="46.464277" lon="13.940536">
        <ele>649.98</ele>
      </trkpt>
      <trkpt lat="46.464277" lon="13.940536">
        <ele>649.98</ele>
      </trkpt>
      <trkpt lat="46.463904" lon="13.942341">
        <ele>649.28</ele>
      </trkpt>
      <trkpt lat="46.463845" lon="13.942545">
        <ele>647.39</ele>
      </trkpt>
      <trkpt lat="46.463821" lon="13.942805">
        <ele>648.08</ele>
      </trkpt>
      <trkpt lat="46.463822" lon="13.942902">
        <ele>648.65</ele>
      </trkpt>
      <trkpt lat="46.463814" lon="13.942962">
        <ele>649</ele>
      </trkpt>
      <trkpt lat="46.46381691098213" lon="13.942962577566504">
        <ele>653</ele>
      </trkpt>
      <trkpt lat="46.463803416118026" lon="13.942972719669342">
        <ele>653</ele>
      </trkpt>
      <trkpt lat="46.46378665231168" lon="13.942974312230945">
        <ele>653</ele>
      </trkpt>
      <trkpt lat="46.463754968717694" lon="13.942971043288708">
        <ele>652.7999877929688</ele>
      </trkpt>
      <trkpt lat="46.463730074465275" lon="13.942967019975185">
        <ele>652.5999755859375</ele>
      </trkpt>
      <trkpt lat="46.46370140835643" lon="13.942964421585202">
        <ele>652.4000244140625</ele>
      </trkpt>
      <trkpt lat="46.46366880275309" lon="13.942964086309075">
        <ele>652</ele>
      </trkpt>
      <trkpt lat="46.4636302459985" lon="13.94296383485198">
        <ele>651.5999755859375</ele>
      </trkpt>
      <trkpt lat="46.46359344944358" lon="13.94296576268971">
        <ele>651.4000244140625</ele>
      </trkpt>
      <trkpt lat="46.46356143057346" lon="13.942968612536788">
        <ele>651.2000122070312</ele>
      </trkpt>
      <trkpt lat="46.46352949552238" lon="13.94297070801258">
        <ele>651.2000122070312</ele>
      </trkpt>
      <trkpt lat="46.4634957164526" lon="13.942970875650644">
        <ele>651</ele>
      </trkpt>
      <trkpt lat="46.46347073838115" lon="13.942968528717756">
        <ele>651</ele>
      </trkpt>
      <trkpt lat="46.4634301699698" lon="13.942964673042297">
        <ele>651</ele>
      </trkpt>
      <trkpt lat="46.463399240747094" lon="13.942964505404234">
        <ele>650.7999877929688</ele>
      </trkpt>
      <trkpt lat="46.463358169421554" lon="13.942959979176521">
        <ele>650.7999877929688</ele>
      </trkpt>
      <trkpt lat="46.46331483498216" lon="13.942937683314085">
        <ele>650.5999755859375</ele>
      </trkpt>
      <trkpt lat="46.46326278336346" lon="13.942889487370849">
        <ele>650.4000244140625</ele>
      </trkpt>
      <trkpt lat="46.463218946009874" lon="13.942835675552487">
        <ele>650</ele>
      </trkpt>
      <trkpt lat="46.463175946846604" lon="13.94277616403997">
        <ele>649.7999877929688</ele>
      </trkpt>
      <trkpt lat="46.46313562989235" lon="13.942715059965849">
        <ele>649.7999877929688</ele>
      </trkpt>
      <trkpt lat="46.46309866569936" lon="13.94265110604465">
        <ele>649.4000244140625</ele>
      </trkpt>
      <trkpt lat="46.46306270733476" lon="13.942591259256005">
        <ele>649.4000244140625</ele>
      </trkpt>
      <trkpt lat="46.463017696514726" lon="13.942544404417276">
        <ele>649.2000122070312</ele>
      </trkpt>
      <trkpt lat="46.462968327105045" lon="13.942511547356844">
        <ele>649.2000122070312</ele>
      </trkpt>
      <trkpt lat="46.46291870623827" lon="13.942489251494408">
        <ele>649.2000122070312</ele>
      </trkpt>
      <trkpt lat="46.46286992356181" lon="13.942475505173206">
        <ele>649.2000122070312</ele>
      </trkpt>
      <trkpt lat="46.46281820721924" lon="13.942461255937815">
        <ele>649.2000122070312</ele>
      </trkpt>
      <trkpt lat="46.46276741288602" lon="13.942444240674376">
        <ele>649.2000122070312</ele>
      </trkpt>
      <trkpt lat="46.462720138952136" lon="13.942425632849336">
        <ele>649.2000122070312</ele>
      </trkpt>
      <trkpt lat="46.462674625217915" lon="13.942402498796582">
        <ele>649.2000122070312</ele>
      </trkpt>
      <trkpt lat="46.462630201131105" lon="13.94237894564867">
        <ele>649.2000122070312</ele>
      </trkpt>
      <trkpt lat="46.462597930803895" lon="13.942360924556851">
        <ele>649.4000244140625</ele>
      </trkpt>
      <trkpt lat="46.46255744621158" lon="13.9423325099051">
        <ele>649.4000244140625</ele>
      </trkpt>
      <trkpt lat="46.46251671016216" lon="13.942295042797923">
        <ele>649.4000244140625</ele>
      </trkpt>
      <trkpt lat="46.46248645149171" lon="13.94226017408073">
        <ele>649.4000244140625</ele>
      </trkpt>
      <trkpt lat="46.462463065981865" lon="13.942230753600597">
        <ele>649.5999755859375</ele>
      </trkpt>
      <trkpt lat="46.46242610178888" lon="13.942185994237661">
        <ele>649.7999877929688</ele>
      </trkpt>
      <trkpt lat="46.46239458583295" lon="13.942145258188248">
        <ele>649.7999877929688</ele>
      </trkpt>
      <trkpt lat="46.462370781227946" lon="13.94211164675653">
        <ele>650</ele>
      </trkpt>
      <trkpt lat="46.46234018728137" lon="13.942072922363877">
        <ele>650</ele>
      </trkpt>
      <trkpt lat="46.462306156754494" lon="13.94202372059226">
        <ele>650.2000122070312</ele>
      </trkpt>
      <trkpt lat="46.4622765686363" lon="13.941984409466386">
        <ele>650.2000122070312</ele>
      </trkpt>
      <trkpt lat="46.46224748343229" lon="13.941944008693099">
        <ele>650.2000122070312</ele>
      </trkpt>
      <trkpt lat="46.46221848204732" lon="13.941901428624988">
        <ele>650.2000122070312</ele>
      </trkpt>
      <trkpt lat="46.462195347994566" lon="13.941868403926492">
        <ele>650.4000244140625</ele>
      </trkpt>
      <trkpt lat="46.46217020228505" lon="13.94182389602065">
        <ele>650.4000244140625</ele>
      </trkpt>
      <trkpt lat="46.46214413456619" lon="13.94177796319127">
        <ele>650.4000244140625</ele>
      </trkpt>
      <trkpt lat="46.462120497599244" lon="13.941733120009303">
        <ele>650.4000244140625</ele>
      </trkpt>
      <trkpt lat="46.462093172594905" lon="13.941676709800959">
        <ele>650.5999755859375</ele>
      </trkpt>
      <trkpt lat="46.46206802688539" lon="13.941630693152547">
        <ele>650.5999755859375</ele>
      </trkpt>
      <trkpt lat="46.46204464137554" lon="13.941597333177924">
        <ele>650.5999755859375</ele>
      </trkpt>
      <trkpt lat="46.46201773546636" lon="13.94155559130013">
        <ele>650.5999755859375</ele>
      </trkpt>
      <trkpt lat="46.46199183538556" lon="13.94151116721332">
        <ele>650.5999755859375</ele>
      </trkpt>
      <trkpt lat="46.461968114599586" lon="13.941464144736528">
        <ele>650.7999877929688</ele>
      </trkpt>
      <trkpt lat="46.461942130699754" lon="13.941420977935195">
        <ele>650.7999877929688</ele>
      </trkpt>
      <trkpt lat="46.46191564388573" lon="13.941377811133862">
        <ele>650.7999877929688</ele>
      </trkpt>
      <trkpt lat="46.461893264204264" lon="13.941334476694465">
        <ele>650.7999877929688</ele>
      </trkpt>
      <trkpt lat="46.46186568774283" lon="13.941283179447055">
        <ele>651</ele>
      </trkpt>
      <trkpt lat="46.46183869801462" lon="13.94124185666442">
        <ele>651</ele>
      </trkpt>
      <trkpt lat="46.461816653609276" lon="13.941199192777276">
        <ele>651</ele>
      </trkpt>
      <trkpt lat="46.4617929328233" lon="13.941157115623355">
        <ele>651</ele>
      </trkpt>
      <trkpt lat="46.461767703294754" lon="13.941118391230702">
        <ele>651</ele>
      </trkpt>
      <trkpt lat="46.46174264140427" lon="13.941079415380955">
        <ele>651.2000122070312</ele>
      </trkpt>
      <trkpt lat="46.461722860112786" lon="13.941047228872776">
        <ele>651.2000122070312</ele>
      </trkpt>
      <trkpt lat="46.4616962056607" lon="13.941008588299155">
        <ele>651.2000122070312</ele>
      </trkpt>
      <trkpt lat="46.46166091784835" lon="13.940970366820693">
        <ele>651.4000244140625</ele>
      </trkpt>
      <trkpt lat="46.46162923425436" lon="13.940962152555585">
        <ele>651.4000244140625</ele>
      </trkpt>
      <trkpt lat="46.461597215384245" lon="13.940966846421361">
        <ele>651.4000244140625</ele>
      </trkpt>
    </trkseg>
  </trk>
</gpx>
